{
"type": "FeatureCollection",
"name": "gadm41_SOM_2",
"crs": { "type": "name", "properties": { "name": "urn:ogc:def:crs:OGC:1.3:CRS84" } },
"features": [
{ "type": "Feature", "properties": { "GID_2": "SOM.1.1_1", "GID_0": "SOM", "COUNTRY": "Somalia", "GID_1": "SOM.1_1", "NAME_1": "Awdal", "NL_NAME_1": "NA", "NAME_2": "Baki", "VARNAME_2": "NA", "NL_NAME_2": "NA", "TYPE_2": "District", "ENGTYPE_2": "District", "CC_2": "NA", "HASC_2": "SO.AW.BA" }, "geometry": { "type": "Polygon", "coordinates": [ [ [ 44.077640533000078, 10.589393616000166 ], [ 44.23513793900014, 10.472639083000104 ], [ 44.139999390000185, 10.289999962000081 ], [ 44.040000915000064, 10.149999619000084 ], [ 43.759998321000182, 10.279998779000096 ], [ 43.389999390000128, 9.779999734000171 ], [ 43.330001832000107, 9.829999924000049 ], [ 43.380001067000023, 10.380001067000023 ], [ 43.450000762000116, 10.359998703000031 ], [ 44.077640533000078, 10.589393616000166 ] ] ] } },
{ "type": "Feature", "properties": { "GID_2": "SOM.1.2_1", "GID_0": "SOM", "COUNTRY": "Somalia", "GID_1": "SOM.1_1", "NAME_1": "Awdal", "NL_NAME_1": "NA", "NAME_2": "Boorama", "VARNAME_2": "Boramo| Borama", "NL_NAME_2": "NA", "TYPE_2": "District", "ENGTYPE_2": "District", "CC_2": "NA", "HASC_2": "SO.AW.BO" }, "geometry": { "type": "Polygon", "coordinates": [ [ [ 43.30158615, 9.651344300000176 ], [ 43.274993897000058, 9.701047897000137 ], [ 43.251365662000183, 9.828227997000113 ], [ 43.213394165000182, 9.871968269000035 ], [ 43.081043243000124, 9.938808441000049 ], [ 43.062965394000116, 9.996518135000144 ], [ 42.856033325000169, 10.225568771000098 ], [ 42.815373, 10.323793000000137 ], [ 43.389999390000128, 10.510001183999975 ], [ 43.330001832000107, 9.829999924000049 ], [ 43.389999390000128, 9.779999734000171 ], [ 43.30158615, 9.651344300000176 ] ] ] } },
{ "type": "Feature", "properties": { "GID_2": "SOM.1.3_1", "GID_0": "SOM", "COUNTRY": "Somalia", "GID_1": "SOM.1_1", "NAME_1": "Awdal", "NL_NAME_1": "NA", "NAME_2": "Lughaya", "VARNAME_2": "Lughaye", "NL_NAME_2": "NA", "TYPE_2": "District", "ENGTYPE_2": "District", "CC_2": "NA", "HASC_2": "SO.AW.LU" }, "geometry": { "type": "Polygon", "coordinates": [ [ [ 44.077640533000078, 10.589393616000166 ], [ 43.450000762000116, 10.359998703000031 ], [ 43.380001067000023, 10.380001067000023 ], [ 43.389999390000128, 10.510001183999975 ], [ 43.229999984000017, 10.46000103700004 ], [ 43.130001156, 10.68000106300002 ], [ 43.7159729010001, 10.915140153000152 ], [ 43.893196105000129, 10.731528282000056 ], [ 44.077640533000078, 10.589393616000166 ] ] ] } },
{ "type": "Feature", "properties": { "GID_2": "SOM.1.4_1", "GID_0": "SOM", "COUNTRY": "Somalia", "GID_1": "SOM.1_1", "NAME_1": "Awdal", "NL_NAME_1": "NA", "NAME_2": "Zeylac", "VARNAME_2": "Saylac", "NL_NAME_2": "NA", "TYPE_2": "District", "ENGTYPE_2": "District", "CC_2": "NA", "HASC_2": "SO.AW.ZE" }, "geometry": { "type": "MultiPolygon", "coordinates": [ [ [ [ 42.985897, 11.02190400000012 ], [ 43.258129, 11.46097200000014 ], [ 43.291805, 11.468195 ], [ 43.312084000000141, 11.464860000000101 ], [ 43.331528000000105, 11.424306 ], [ 43.349030000000141, 11.432916 ], [ 43.372082, 11.394027000000108 ], [ 43.425140000000169, 11.379306000000156 ], [ 43.452084000000184, 11.350694000000146 ], [ 43.459862000000157, 11.348472000000129 ], [ 43.470695000000148, 11.350138000000129 ], [ 43.469028, 11.35930500000012 ], [ 43.480972000000122, 11.352360000000147 ], [ 43.490417, 11.367083 ], [ 43.4812510000001, 11.361251 ], [ 43.479584, 11.362639000000115 ], [ 43.469860000000153, 11.360417 ], [ 43.468472, 11.360973000000115 ], [ 43.48875, 11.368749 ], [ 43.505138000000159, 11.36847100000017 ], [ 43.47874800000011, 11.330973 ], [ 43.497082, 11.212084000000175 ], [ 43.524307, 11.183472000000165 ], [ 43.555695000000128, 11.176249 ], [ 43.652637, 10.986805000000174 ], [ 43.715694, 10.91514 ], [ 43.130001156, 10.68000106300002 ], [ 43.229999984000017, 10.46000103700004 ], [ 42.815373, 10.323793000000137 ], [ 42.838176845000135, 10.26841918700012 ], [ 42.804515946000038, 10.314758127000175 ], [ 42.715984344000105, 10.531178474 ], [ 42.706886291000046, 10.618978500000026 ], [ 42.796535492000032, 10.791977882000026 ], [ 42.985897, 11.02190400000012 ] ] ], [ [ [ 43.332916000000182, 11.448471000000154 ], [ 43.335972, 11.445417 ], [ 43.334305, 11.443751 ], [ 43.332916000000182, 11.448471000000154 ] ] ], [ [ [ 43.257915000000139, 11.46125 ], [ 43.257615000000158, 11.461140000000171 ], [ 43.257355000000132, 11.461225000000127 ], [ 43.257915000000139, 11.46125 ] ] ], [ [ [ 43.25642, 11.461528000000101 ], [ 43.257362000000171, 11.461528000000101 ], [ 43.257355000000132, 11.461225000000127 ], [ 43.25642, 11.461528000000101 ] ] ], [ [ [ 43.464305999000089, 11.350138001000062 ], [ 43.467640000000131, 11.352916000000107 ], [ 43.467640000000131, 11.352084 ], [ 43.464305999000089, 11.350138001000062 ] ] ], [ [ [ 43.49541900000014, 11.375416000000143 ], [ 43.505974, 11.374584 ], [ 43.493473000000108, 11.37264000000016 ], [ 43.49541900000014, 11.375416000000143 ] ] ], [ [ [ 43.451248000000135, 11.43375 ], [ 43.459862000000157, 11.449583000000132 ], [ 43.47514, 11.445139000000154 ], [ 43.464863, 11.416527000000144 ], [ 43.453751, 11.418473 ], [ 43.454582, 11.430418 ], [ 43.451248000000135, 11.43375 ] ] ], [ [ [ 43.451527000000112, 11.432916 ], [ 43.4468040000001, 11.432916 ], [ 43.4468040000001, 11.434304 ], [ 43.451527000000112, 11.432916 ] ] ], [ [ [ 43.368752, 11.434028000000126 ], [ 43.37125, 11.435694000000126 ], [ 43.37875, 11.442639 ], [ 43.381248, 11.435694000000126 ], [ 43.368752, 11.434028000000126 ] ] ], [ [ [ 43.360973000000115, 11.465417 ], [ 43.364582000000155, 11.462082000000123 ], [ 43.359306, 11.463472 ], [ 43.360973000000115, 11.465417 ] ] ], [ [ [ 43.453194000000167, 11.502639000000102 ], [ 43.468472, 11.51125 ], [ 43.449028000000112, 11.489582000000155 ], [ 43.453194000000167, 11.502639000000102 ] ] ], [ [ [ 43.255974, 11.461806 ], [ 43.255727, 11.461754 ], [ 43.255566000000101, 11.461806 ], [ 43.255974, 11.461806 ] ] ], [ [ [ 43.254845000000103, 11.46204 ], [ 43.255417000000193, 11.462082000000123 ], [ 43.255417000000193, 11.461854 ], [ 43.254845000000103, 11.46204 ] ] ], [ [ [ 43.251476, 11.463136000000134 ], [ 43.25264, 11.462916 ], [ 43.254845000000103, 11.46204 ], [ 43.251476, 11.463136000000134 ] ] ], [ [ [ 43.285694000000149, 11.488194 ], [ 43.294029000000194, 11.485972 ], [ 43.280972, 11.484862 ], [ 43.285694000000149, 11.488194 ] ] ] ] } },
{ "type": "Feature", "properties": { "GID_2": "SOM.2.1_1", "GID_0": "SOM", "COUNTRY": "Somalia", "GID_1": "SOM.2_1", "NAME_1": "Bakool", "NL_NAME_1": "NA", "NAME_2": "Ceel Barde", "VARNAME_2": "Ceel Barde|El Barde", "NL_NAME_2": "NA", "TYPE_2": "District", "ENGTYPE_2": "District", "CC_2": "NA", "HASC_2": "SO.BK.CB" }, "geometry": { "type": "Polygon", "coordinates": [ [ [ 43.118354797000165, 4.621655941000085 ], [ 43.397472381, 4.784063816000071 ], [ 43.863922119000051, 4.910642624000047 ], [ 44.150142670000093, 4.945662023000068 ], [ 44.589881896000065, 4.921791554000038 ], [ 44.680000304000032, 4.410000802000127 ], [ 43.27000045800014, 4.469998836 ], [ 43.118354797000165, 4.621655941000085 ] ] ] } },
{ "type": "Feature", "properties": { "GID_2": "SOM.2.2_1", "GID_0": "SOM", "COUNTRY": "Somalia", "GID_1": "SOM.2_1", "NAME_1": "Bakool", "NL_NAME_1": "NA", "NAME_2": "Rab Dhuure", "VARNAME_2": "NA", "NL_NAME_2": "NA", "TYPE_2": "District", "ENGTYPE_2": "District", "CC_2": "NA", "HASC_2": "NA" }, "geometry": { "type": "Polygon", "coordinates": [ [ [ 42.777027130000079, 4.268294812000022 ], [ 42.947967530000028, 4.395154477 ], [ 43.03303909400006, 4.55456447600011 ], [ 43.118354797000165, 4.621655941000085 ], [ 43.639999390000071, 4.050000191000152 ], [ 43.099998474000017, 3.929999113000179 ], [ 42.882766724000078, 4.305806160000088 ], [ 42.82509994500009, 4.267076970000119 ], [ 42.777027130000079, 4.268294812000022 ] ] ] } },
{ "type": "Feature", "properties": { "GID_2": "SOM.2.3_1", "GID_0": "SOM", "COUNTRY": "Somalia", "GID_1": "SOM.2_1", "NAME_1": "Bakool", "NL_NAME_1": "NA", "NAME_2": "Tiyeeglow", "VARNAME_2": "Tiyeglow", "NL_NAME_2": "NA", "TYPE_2": "District", "ENGTYPE_2": "District", "CC_2": "NA", "HASC_2": "SO.BK.TI" }, "geometry": { "type": "Polygon", "coordinates": [ [ [ 44.270000457000037, 4.430000782000093 ], [ 44.680000304000032, 4.410000802000127 ], [ 44.799999237000122, 3.859999895000044 ], [ 44.770000457000151, 3.70000004700006 ], [ 44.779998780000028, 3.26999998000008 ], [ 44.659999847000165, 3.250000953000097 ], [ 44.610000611000146, 3.26999998000008 ], [ 44.409999847000051, 3.259999037000114 ], [ 44.279998780000142, 3.339998960000173 ], [ 44.310001374000137, 3.390001059000156 ], [ 44.310001374000137, 3.570000888000152 ], [ 44.29000091600011, 3.609998942000061 ], [ 44.270000457000037, 4.430000782000093 ] ] ] } },
{ "type": "Feature", "properties": { "GID_2": "SOM.2.4_1", "GID_0": "SOM", "COUNTRY": "Somalia", "GID_1": "SOM.2_1", "NAME_1": "Bakool", "NL_NAME_1": "NA", "NAME_2": "Wajid", "VARNAME_2": "NA", "NL_NAME_2": "NA", "TYPE_2": "District", "ENGTYPE_2": "District", "CC_2": "NA", "HASC_2": "SO.BK.WA" }, "geometry": { "type": "Polygon", "coordinates": [ [ [ 43.099998474000017, 3.929999113000179 ], [ 43.639999390000071, 4.050000191000152 ], [ 43.790000915000121, 3.880000114000097 ], [ 43.75, 3.849998951000146 ], [ 43.680000305000192, 3.720000029000175 ], [ 43.580001831000175, 3.609998942000061 ], [ 43.409999848000155, 3.570000888000152 ], [ 43.119998931000111, 3.670000076000065 ], [ 43.139999389000081, 3.849998951000146 ], [ 43.099998474000017, 3.929999113000179 ] ] ] } },
{ "type": "Feature", "properties": { "GID_2": "SOM.2.5_1", "GID_0": "SOM", "COUNTRY": "Somalia", "GID_1": "SOM.2_1", "NAME_1": "Bakool", "NL_NAME_1": "NA", "NAME_2": "Xudur", "VARNAME_2": "Hudur", "NL_NAME_2": "NA", "TYPE_2": "District", "ENGTYPE_2": "District", "CC_2": "NA", "HASC_2": "SO.BK.HU" }, "geometry": { "type": "Polygon", "coordinates": [ [ [ 43.27000045800014, 4.469998836 ], [ 44.270000457000037, 4.430000782000093 ], [ 44.29000091600011, 3.609998942000061 ], [ 44.180000305000078, 3.849998951000146 ], [ 43.950000762, 3.92000103100014 ], [ 43.880001069000116, 3.92000103100014 ], [ 43.790000915000121, 3.880000114000097 ], [ 43.27000045800014, 4.469998836 ] ] ] } },
{ "type": "Feature", "properties": { "GID_2": "SOM.3.1_1", "GID_0": "SOM", "COUNTRY": "Somalia", "GID_1": "SOM.3_1", "NAME_1": "Banaadir", "NL_NAME_1": "NA", "NAME_2": "Mogadisho", "VARNAME_2": "Mogadishu", "NL_NAME_2": "NA", "TYPE_2": "District", "ENGTYPE_2": "District", "CC_2": "NA", "HASC_2": "NA" }, "geometry": { "type": "Polygon", "coordinates": [ [ [ 45.603473663000102, 2.18304395600012 ], [ 45.392639160000044, 2.052083015000051 ], [ 45.26647568900006, 1.988472000000115 ], [ 45.389999389000195, 2.150001050000128 ], [ 45.603473663000102, 2.18304395600012 ] ] ] } },
{ "type": "Feature", "properties": { "GID_2": "SOM.4.1_1", "GID_0": "SOM", "COUNTRY": "Somalia", "GID_1": "SOM.4_1", "NAME_1": "Bari", "NL_NAME_1": "NA", "NAME_2": "Bander-Beyla", "VARNAME_2": "Bender Bayla| Bander Beila", "NL_NAME_2": "NA", "TYPE_2": "District", "ENGTYPE_2": "District", "CC_2": "NA", "HASC_2": "SO.BR.BB" }, "geometry": { "type": "Polygon", "coordinates": [ [ [ 50.178169250000053, 8.32992839700006 ], [ 50.049999236000076, 8.439997673 ], [ 49.930000305000192, 8.460000038000089 ], [ 49.889999389000195, 8.399999617999981 ], [ 49.889999389000195, 9.040000916000054 ], [ 49.900001527000143, 9.100000382000189 ], [ 50.060001372000045, 9.250000954000086 ], [ 50.090000144000044, 9.800000029000046 ], [ 50.439998625999976, 9.870000839000113 ], [ 50.869304658000033, 9.884874988000092 ], [ 50.845695496000019, 9.85875129700014 ], [ 50.831249237000179, 9.693472862000135 ], [ 50.800693513000056, 9.557916642000066 ], [ 50.802360534000059, 9.518750192000027 ], [ 50.845695496000019, 9.474584580000112 ], [ 50.844581604000098, 9.452638627000169 ], [ 50.748195648000035, 9.294860841 ], [ 50.705970764000028, 9.27152729 ], [ 50.650138855000193, 9.195693969000104 ], [ 50.652637482000046, 9.12402916100018 ], [ 50.635971069000163, 9.07046222800011 ], [ 50.446250916000054, 8.898750305000021 ], [ 50.419860840000183, 8.854860305000102 ], [ 50.38541793800016, 8.703748704000077 ], [ 50.332084657000109, 8.627915383000129 ], [ 50.322639464000133, 8.526805878000118 ], [ 50.23847198500016, 8.434861184000169 ], [ 50.178169250000053, 8.32992839700006 ] ] ] } },
{ "type": "Feature", "properties": { "GID_2": "SOM.4.2_1", "GID_0": "SOM", "COUNTRY": "Somalia", "GID_1": "SOM.4_1", "NAME_1": "Bari", "NL_NAME_1": "NA", "NAME_2": "Bosaaso", "VARNAME_2": "Bosaso", "NL_NAME_2": "NA", "TYPE_2": "District", "ENGTYPE_2": "District", "CC_2": "NA", "HASC_2": "SO.BR.BO" }, "geometry": { "type": "Polygon", "coordinates": [ [ [ 49.599998000000141, 10.480000000000132 ], [ 49.450000763000105, 10.470000267000103 ], [ 49.349998474000017, 10.52000141200017 ], [ 49.250000001000103, 10.510001183999975 ], [ 49.22999954200003, 10.489998817000128 ], [ 49.169998170000099, 10.47999954300019 ], [ 49.040000916000054, 10.350001336000048 ], [ 49.029998778999982, 10.780000686000051 ], [ 48.91477203300019, 11.239595414000064 ], [ 48.879604340000128, 11.246535302000154 ], [ 48.869583130000194, 11.251528741000072 ], [ 48.955139159000055, 11.240415573000178 ], [ 49.031806946000131, 11.258749009000098 ], [ 49.034027100000174, 11.252082825000059 ], [ 49.040416718000188, 11.247637748999978 ], [ 49.034862518000182, 11.259305001000087 ], [ 49.062084198000093, 11.267915727 ], [ 49.259582520000095, 11.305694580000079 ], [ 49.302360535000105, 11.337082863000035 ], [ 49.421527863000051, 11.335970878000126 ], [ 49.50847244300013, 11.38180732800015 ], [ 49.547359467000149, 11.439348220000113 ], [ 49.900001527000143, 10.860000610000043 ], [ 49.900001527000143, 10.760001183000043 ], [ 49.599998000000141, 10.480000000000132 ] ] ] } },
{ "type": "Feature", "properties": { "GID_2": "SOM.4.3_1", "GID_0": "SOM", "COUNTRY": "Somalia", "GID_1": "SOM.4_1", "NAME_1": "Bari", "NL_NAME_1": "NA", "NAME_2": "Calawla", "VARNAME_2": "Alula", "NL_NAME_2": "NA", "TYPE_2": "District", "ENGTYPE_2": "District", "CC_2": "NA", "HASC_2": "SO.BR.AL" }, "geometry": { "type": "Polygon", "coordinates": [ [ [ 50.429999952000117, 11.370002849000173 ], [ 50.290000915000064, 11.409998894000012 ], [ 50.330001831000061, 11.449997902 ], [ 50.351406097000051, 11.634140968000111 ], [ 50.444583893000015, 11.681804656000111 ], [ 50.485416412000177, 11.721528053000156 ], [ 50.534862519000171, 11.809583664000058 ], [ 50.539585113000101, 11.828195571000037 ], [ 50.538749696000139, 11.834584236000069 ], [ 50.526805878000118, 11.799583434999988 ], [ 50.524860382000099, 11.798474313000042 ], [ 50.551528930000075, 11.883472444000176 ], [ 50.62819290200008, 11.942638398000099 ], [ 50.678195953000113, 11.935695648000149 ], [ 50.79513931300005, 11.988192558000037 ], [ 50.817638397, 11.972082138000189 ], [ 50.806804657000157, 11.961249351000163 ], [ 50.821250916000054, 11.969860077000135 ], [ 50.845695496000019, 11.940416337000045 ], [ 50.975139617000195, 11.919859886000097 ], [ 51.055973053000059, 11.872404098000061 ], [ 51.145416259000115, 11.872917176000044 ], [ 51.238471984000057, 11.834859848000121 ], [ 51.288192749000189, 11.834028244000081 ], [ 51.247081758000149, 11.716251372999977 ], [ 51.253749848000098, 11.671527862000175 ], [ 51.124779000000103, 11.502291000000127 ], [ 51.124370575000171, 11.451520920000121 ], [ 50.720001, 11.370003000000111 ], [ 50.429999952000117, 11.370002849000173 ] ] ] } },
{ "type": "Feature", "properties": { "GID_2": "SOM.4.4_1", "GID_0": "SOM", "COUNTRY": "Somalia", "GID_1": "SOM.4_1", "NAME_1": "Bari", "NL_NAME_1": "NA", "NAME_2": "Iskushuban", "VARNAME_2": "Iskhushuban", "NL_NAME_2": "NA", "TYPE_2": "District", "ENGTYPE_2": "District", "CC_2": "NA", "HASC_2": "SO.BR.IS" }, "geometry": { "type": "MultiPolygon", "coordinates": [ [ [ [ 51.182919, 10.559583001000021 ], [ 51.19069300100017, 10.542083999000056 ], [ 51.191250000000196, 10.537084001000039 ], [ 51.18819400100017, 10.540416000000164 ], [ 51.182919, 10.559583001000021 ] ] ], [ [ [ 50.869304658000033, 9.884874988000092 ], [ 50.439998625999976, 9.870000839000113 ], [ 50.020000257000106, 9.790001036999968 ], [ 49.689999000000171, 9.989998 ], [ 49.529998779000096, 10.47999954300019 ], [ 50.470001000000138, 10.61 ], [ 50.569999695000035, 10.790001869000037 ], [ 50.349998000000141, 11.120002 ], [ 50.429999952000117, 11.370002849000173 ], [ 50.720001, 11.370003000000111 ], [ 51.124370575000171, 11.451520920000121 ], [ 51.119823, 11.491747 ], [ 51.124779000000103, 11.502291000000127 ], [ 51.136806000000149, 11.518195000000105 ], [ 51.122082, 11.492639000000167 ], [ 51.127918000000136, 11.454306000000145 ], [ 51.114582, 11.401528 ], [ 51.082359000000167, 11.32375 ], [ 51.077362000000107, 11.23986200000013 ], [ 51.104027000000144, 11.167638000000125 ], [ 51.159863, 11.151527 ], [ 51.118752, 11.154027000000156 ], [ 51.107082000000105, 11.16125 ], [ 51.104305, 11.159306000000129 ], [ 51.139862, 11.138194000000169 ], [ 51.175694, 11.154584 ], [ 51.183472, 11.144305 ], [ 51.133194, 11.034582000000171 ], [ 51.119583, 10.931529 ], [ 51.130974, 10.68569500000018 ], [ 51.170696, 10.571250000000134 ], [ 51.108749, 10.552917 ], [ 51.105415, 10.529305 ], [ 51.075138, 10.516250000000127 ], [ 51.071529000000112, 10.484306000000117 ], [ 51.032917000000111, 10.46097200000014 ], [ 51.024582, 10.415417000000161 ], [ 51.044304, 10.404862 ], [ 51.110138000000177, 10.428193000000135 ], [ 51.234859, 10.432360000000131 ], [ 51.197083000000191, 10.479861 ], [ 51.194305000000156, 10.534305 ], [ 51.295418, 10.478749 ], [ 51.392639, 10.478195 ], [ 51.415417, 10.441251 ], [ 51.375137, 10.363195000000132 ], [ 51.340694, 10.377640000000156 ], [ 51.271805, 10.374584 ], [ 51.265415000000189, 10.420417000000157 ], [ 51.211250000000121, 10.424305000000174 ], [ 51.060139, 10.399583000000121 ], [ 50.932362, 10.340695 ], [ 50.89847200000014, 10.311529 ], [ 50.903194, 10.175973 ], [ 50.885693000000117, 10.095695 ], [ 50.902084, 9.995417 ], [ 50.869304658000033, 9.884874988000092 ] ] ] ] } },
{ "type": "Feature", "properties": { "GID_2": "SOM.4.5_1", "GID_0": "SOM", "COUNTRY": "Somalia", "GID_1": "SOM.4_1", "NAME_1": "Bari", "NL_NAME_1": "NA", "NAME_2": "Qandala", "VARNAME_2": "Kandala", "NL_NAME_2": "NA", "TYPE_2": "District", "ENGTYPE_2": "District", "CC_2": "NA", "HASC_2": "SO.BR.QA" }, "geometry": { "type": "Polygon", "coordinates": [ [ [ 49.599998000000141, 10.480000000000132 ], [ 49.900001527000143, 10.760001183000043 ], [ 49.900001527000143, 10.860000610000043 ], [ 49.547618865000118, 11.440156938000086 ], [ 49.694026948000044, 11.480139734000147 ], [ 49.753749847000165, 11.458749771000043 ], [ 49.827640534000125, 11.46014022900016 ], [ 49.91791534400005, 11.504304886000114 ], [ 49.942359924000073, 11.48347187000013 ], [ 49.92514038000013, 11.505137442999967 ], [ 49.946250915000064, 11.515693665000128 ], [ 50.071250916, 11.505417823000073 ], [ 50.362083435000102, 11.640479087000074 ], [ 50.330001831000061, 11.449997902 ], [ 50.290000915000064, 11.409998894000012 ], [ 50.429999952000117, 11.370002849000173 ], [ 50.349998000000141, 11.120002 ], [ 50.569999695000035, 10.790001869000037 ], [ 50.470001000000138, 10.61 ], [ 49.599998000000141, 10.480000000000132 ] ] ] } },
{ "type": "Feature", "properties": { "GID_2": "SOM.4.6_1", "GID_0": "SOM", "COUNTRY": "Somalia", "GID_1": "SOM.4_1", "NAME_1": "Bari", "NL_NAME_1": "NA", "NAME_2": "Qardho", "VARNAME_2": "Gardo", "NL_NAME_2": "NA", "TYPE_2": "District", "ENGTYPE_2": "District", "CC_2": "NA", "HASC_2": "SO.BR.QR" }, "geometry": { "type": "Polygon", "coordinates": [ [ [ 50.090000144000044, 9.800000029000046 ], [ 50.060001372000045, 9.250000954000086 ], [ 49.900001527000143, 9.100000382000189 ], [ 49.889999389000195, 8.399999617999981 ], [ 49.840000153000176, 8.330000878000078 ], [ 49.779998779000039, 8.529998780000142 ], [ 49.680000305000021, 8.580000878000021 ], [ 49.450000763000105, 8.590000154000109 ], [ 49.180000306000068, 8.770001411000067 ], [ 49.110000611000146, 8.899998665000055 ], [ 49.080001830000072, 9.140001297000083 ], [ 49.040000916000054, 10.350001336000048 ], [ 49.169998170000099, 10.47999954300019 ], [ 49.22999954200003, 10.489998817000128 ], [ 49.250000001000103, 10.510001183999975 ], [ 49.349998474000017, 10.52000141200017 ], [ 49.450000763000105, 10.470000267000103 ], [ 49.529998779000096, 10.47999954300019 ], [ 49.689999000000171, 9.989998 ], [ 50.020000257000106, 9.790001036999968 ], [ 50.090000144000044, 9.800000029000046 ] ] ] } },
{ "type": "Feature", "properties": { "GID_2": "SOM.5.1_1", "GID_0": "SOM", "COUNTRY": "Somalia", "GID_1": "SOM.5_1", "NAME_1": "Bay", "NL_NAME_1": "NA", "NAME_2": "Baydhabo", "VARNAME_2": "Baydhaba| Baidoa", "NL_NAME_2": "NA", "TYPE_2": "District", "ENGTYPE_2": "District", "CC_2": "NA", "HASC_2": "SO.BY.BA" }, "geometry": { "type": "Polygon", "coordinates": [ [ [ 44.180000305000078, 3.849998951000146 ], [ 44.310001374000137, 3.570000888000152 ], [ 44.310001374000137, 3.390001059000156 ], [ 44.279998780000142, 3.339998960000173 ], [ 43.56000137400008, 2.650000095 ], [ 43.459999084000117, 2.500000953999972 ], [ 43.130001068000183, 2.55000090700014 ], [ 43.130001068000183, 3.06000089700018 ], [ 43.099998474000017, 3.06000089700018 ], [ 43.119998931000111, 3.670000076000065 ], [ 43.409999848000155, 3.570000888000152 ], [ 43.580001831000175, 3.609998942000061 ], [ 43.680000305000192, 3.720000029000175 ], [ 43.75, 3.849998951000146 ], [ 43.880001069000116, 3.92000103100014 ], [ 43.950000762, 3.92000103100014 ], [ 44.180000305000078, 3.849998951000146 ] ] ] } },
{ "type": "Feature", "properties": { "GID_2": "SOM.5.2_1", "GID_0": "SOM", "COUNTRY": "Somalia", "GID_1": "SOM.5_1", "NAME_1": "Bay", "NL_NAME_1": "NA", "NAME_2": "Buur Xakaba", "VARNAME_2": "Burhakaba| Bur Hacaba| Buurhakab", "NL_NAME_2": "NA", "TYPE_2": "District", "ENGTYPE_2": "District", "CC_2": "NA", "HASC_2": "SO.BY.BU" }, "geometry": { "type": "Polygon", "coordinates": [ [ [ 44.279998780000142, 3.339998960000173 ], [ 44.409999847000051, 3.259999037000114 ], [ 44.610000611000146, 3.26999998000008 ], [ 44.659999847000165, 3.250000953000097 ], [ 44.689998628000069, 3.049999953000167 ], [ 44.639999390000071, 2.80999994300015 ], [ 44.659999847000165, 2.75000000100016 ], [ 44.619998932000101, 2.479999066000062 ], [ 44.65000152600004, 2.220000028000015 ], [ 43.580001831000175, 1.75999999000004 ], [ 43.319999695000092, 1.629999996000151 ], [ 43.340000153000062, 1.77000105400009 ], [ 43.259998321000069, 1.889999987000181 ], [ 43.209999084000174, 2.019999028000086 ], [ 43.380001067000023, 2.390001059000156 ], [ 43.56000137400008, 2.650000095 ], [ 44.279998780000142, 3.339998960000173 ] ] ] } },
{ "type": "Feature", "properties": { "GID_2": "SOM.5.3_1", "GID_0": "SOM", "COUNTRY": "Somalia", "GID_1": "SOM.5_1", "NAME_1": "Bay", "NL_NAME_1": "NA", "NAME_2": "Diinsoor", "VARNAME_2": "Dinsor", "NL_NAME_2": "NA", "TYPE_2": "District", "ENGTYPE_2": "District", "CC_2": "NA", "HASC_2": "SO.BY.DI" }, "geometry": { "type": "Polygon", "coordinates": [ [ [ 43.130001068000183, 2.55000090700014 ], [ 43.459999084000117, 2.500000953999972 ], [ 43.380001067000023, 2.390001059000156 ], [ 43.209999084000174, 2.019999028000086 ], [ 43.259998321000069, 1.889999987000181 ], [ 43.340000153000062, 1.77000105400009 ], [ 43.319999695000092, 1.629999996000151 ], [ 42.979999543000133, 1.460000038000032 ], [ 42.52000045800014, 1.880000949000134 ], [ 42.40000152500005, 1.950000048000163 ], [ 42.509998322000172, 2.569999934000123 ], [ 43.130001068000183, 2.55000090700014 ] ] ] } },
{ "type": "Feature", "properties": { "GID_2": "SOM.5.4_1", "GID_0": "SOM", "COUNTRY": "Somalia", "GID_1": "SOM.5_1", "NAME_1": "Bay", "NL_NAME_1": "NA", "NAME_2": "Qansax Dheere", "VARNAME_2": "Qansadhere", "NL_NAME_2": "NA", "TYPE_2": "District", "ENGTYPE_2": "District", "CC_2": "NA", "HASC_2": "SO.BY.QA" }, "geometry": { "type": "Polygon", "coordinates": [ [ [ 42.930000305000135, 3.040000915000064 ], [ 43.130001068000183, 3.06000089700018 ], [ 43.130001068000183, 2.55000090700014 ], [ 42.509998322000172, 2.569999934000123 ], [ 42.599998474000131, 3.069998981000026 ], [ 42.930000305000135, 3.040000915000064 ] ] ] } },
{ "type": "Feature", "properties": { "GID_2": "SOM.6.1_1", "GID_0": "SOM", "COUNTRY": "Somalia", "GID_1": "SOM.6_1", "NAME_1": "Galguduud", "NL_NAME_1": "NA", "NAME_2": "Caabudwaaq", "VARNAME_2": "Cabudwaaq", "NL_NAME_2": "NA", "TYPE_2": "District", "ENGTYPE_2": "District", "CC_2": "NA", "HASC_2": "SO.GA.CB" }, "geometry": { "type": "Polygon", "coordinates": [ [ [ 45.533222198000146, 5.482010366000168 ], [ 46.487747192000029, 6.475593090000132 ], [ 46.650001527000086, 5.919999122000036 ], [ 46.419998169000166, 5.890000821000172 ], [ 46.250000000999989, 5.67999887600007 ], [ 45.669998170000042, 5.190001010000117 ], [ 45.533222198000146, 5.482010366000168 ] ] ] } },
{ "type": "Feature", "properties": { "GID_2": "SOM.6.2_1", "GID_0": "SOM", "COUNTRY": "Somalia", "GID_1": "SOM.6_1", "NAME_1": "Galguduud", "NL_NAME_1": "NA", "NAME_2": "Cadaado", "VARNAME_2": "Adado", "NL_NAME_2": "NA", "TYPE_2": "District", "ENGTYPE_2": "District", "CC_2": "NA", "HASC_2": "SO.GA.CD" }, "geometry": { "type": "Polygon", "coordinates": [ [ [ 46.487747192000029, 6.475593090000132 ], [ 46.53020477300015, 6.519646644000034 ], [ 47.599998473000142, 6.280000209000093 ], [ 47.349998474000074, 5.750000954000086 ], [ 46.689998626000033, 5.839999199000147 ], [ 46.650001527000086, 5.919999122000036 ], [ 46.487747192000029, 6.475593090000132 ] ] ] } },
{ "type": "Feature", "properties": { "GID_2": "SOM.6.3_1", "GID_0": "SOM", "COUNTRY": "Somalia", "GID_1": "SOM.6_1", "NAME_1": "Galguduud", "NL_NAME_1": "NA", "NAME_2": "Ceel Buur", "VARNAME_2": "Ceelbur|El Bur", "NL_NAME_2": "NA", "TYPE_2": "District", "ENGTYPE_2": "District", "CC_2": "NA", "HASC_2": "SO.GA.CE" }, "geometry": { "type": "Polygon", "coordinates": [ [ [ 47.5, 4.489998818000174 ], [ 46.680000305000078, 4.330000877999964 ], [ 46.400001525000164, 4.230000020000148 ], [ 46.150001525, 4.430000782000093 ], [ 46.1100006100001, 4.7399997710001 ], [ 46.209999084000117, 4.940000058000123 ], [ 46.229999541000041, 5.080000878000021 ], [ 46.520000458000027, 5.140000820000068 ], [ 47.610000609999986, 5.190001010000117 ], [ 47.5, 4.489998818000174 ] ] ] } },
{ "type": "Feature", "properties": { "GID_2": "SOM.6.4_1", "GID_0": "SOM", "COUNTRY": "Somalia", "GID_1": "SOM.6_1", "NAME_1": "Galguduud", "NL_NAME_1": "NA", "NAME_2": "Ceel Dheer", "VARNAME_2": "Ceeldeer|El Dere", "NL_NAME_2": "NA", "TYPE_2": "District", "ENGTYPE_2": "District", "CC_2": "NA", "HASC_2": "SO.GA.CR" }, "geometry": { "type": "Polygon", "coordinates": [ [ [ 46.400001525000164, 4.230000020000148 ], [ 46.680000305000078, 4.330000877999964 ], [ 47.5, 4.489998818000174 ], [ 47.834861756000066, 4.343194962000098 ], [ 47.47680664100011, 3.924861909000185 ], [ 47.035972596000079, 3.471806049000122 ], [ 46.389999389000195, 3.890000105000126 ], [ 46.400001525000164, 4.230000020000148 ] ] ] } },
{ "type": "Feature", "properties": { "GID_2": "SOM.6.5_1", "GID_0": "SOM", "COUNTRY": "Somalia", "GID_1": "SOM.6_1", "NAME_1": "Galguduud", "NL_NAME_1": "NA", "NAME_2": "Dhuusamareeb", "VARNAME_2": "Dhusa-Mareb", "NL_NAME_2": "NA", "TYPE_2": "District", "ENGTYPE_2": "District", "CC_2": "NA", "HASC_2": "SO.GA.DM" }, "geometry": { "type": "Polygon", "coordinates": [ [ [ 45.669998170000042, 5.190001010000117 ], [ 46.250000000999989, 5.67999887600007 ], [ 46.419998169000166, 5.890000821000172 ], [ 46.650001527000086, 5.919999122000036 ], [ 46.689998626000033, 5.839999199000147 ], [ 47.349998474000074, 5.750000954000086 ], [ 47.470001221000132, 5.569999219000067 ], [ 47.610000609999986, 5.190001010000117 ], [ 46.520000458000027, 5.140000820000068 ], [ 46.040000915000064, 5.030001163000065 ], [ 45.70999908400006, 5.110001087000057 ], [ 45.669998170000042, 5.190001010000117 ] ] ] } },
{ "type": "Feature", "properties": { "GID_2": "SOM.7.1_1", "GID_0": "SOM", "COUNTRY": "Somalia", "GID_1": "SOM.7_1", "NAME_1": "Gedo", "NL_NAME_1": "NA", "NAME_2": "Baar-Dheere", "VARNAME_2": "Bardhere| Baardheere|Bardera", "NL_NAME_2": "NA", "TYPE_2": "District", "ENGTYPE_2": "District", "CC_2": "NA", "HASC_2": "SO.GE.BA" }, "geometry": { "type": "Polygon", "coordinates": [ [ [ 40.978607177000072, 2.178437471000052 ], [ 40.987304687000119, 2.289307118000124 ], [ 41.810119628999985, 2.270081043000118 ], [ 41.980102539000143, 2.92010498000019 ], [ 42.540027619000114, 2.74013590900006 ], [ 42.40000152500005, 1.950000048000163 ], [ 41.640033721000066, 1.940000057000077 ], [ 41.420108796000136, 1.26000797800009 ], [ 40.990688323000143, 1.230770946000064 ], [ 40.993831635000163, 1.823886037000022 ], [ 40.978607177000072, 2.178437471000052 ] ] ] } },
{ "type": "Feature", "properties": { "GID_2": "SOM.7.2_1", "GID_0": "SOM", "COUNTRY": "Somalia", "GID_1": "SOM.7_1", "NAME_1": "Gedo", "NL_NAME_1": "NA", "NAME_2": "Beled Xaawo", "VARNAME_2": "Beletxawa| Bula-hawa| Belet Hawa", "NL_NAME_2": "NA", "TYPE_2": "District", "ENGTYPE_2": "District", "CC_2": "NA", "HASC_2": "SO.GE.BE" }, "geometry": { "type": "Polygon", "coordinates": [ [ [ 41.309329987000126, 3.139405966000083 ], [ 41.846054078000066, 3.893122911999967 ], [ 42.119998932000044, 3.790000915000121 ], [ 41.740001678000112, 2.989999057000034 ], [ 41.330001831000061, 3.120001079000076 ], [ 41.309329987000126, 3.139405966000083 ] ] ] } },
{ "type": "Feature", "properties": { "GID_2": "SOM.7.3_1", "GID_0": "SOM", "COUNTRY": "Somalia", "GID_1": "SOM.7_1", "NAME_1": "Gedo", "NL_NAME_1": "NA", "NAME_2": "Ceel Waaq", "VARNAME_2": "Ceelwaaq|El Wak| El Waq", "NL_NAME_2": "NA", "TYPE_2": "District", "ENGTYPE_2": "District", "CC_2": "NA", "HASC_2": "SO.GE.CE" }, "geometry": { "type": "Polygon", "coordinates": [ [ [ 40.986560822000115, 2.819380999000089 ], [ 41.309329987000126, 3.139405966000083 ], [ 41.330001831000061, 3.120001079000076 ], [ 41.980068207000159, 2.91997790400012 ], [ 41.810119628999985, 2.270081043000118 ], [ 40.987304687000119, 2.289307118000124 ], [ 40.986560822000115, 2.819380999000089 ] ] ] } },
{ "type": "Feature", "properties": { "GID_2": "SOM.7.4_1", "GID_0": "SOM", "COUNTRY": "Somalia", "GID_1": "SOM.7_1", "NAME_1": "Gedo", "NL_NAME_1": "NA", "NAME_2": "Dolow", "VARNAME_2": "Doolow", "NL_NAME_2": "NA", "TYPE_2": "District", "ENGTYPE_2": "District", "CC_2": "NA", "HASC_2": "SO.GE.DO" }, "geometry": { "type": "Polygon", "coordinates": [ [ [ 42.013744355000142, 4.09783601700002 ], [ 42.203907014000094, 4.161425592000114 ], [ 42.393688202000192, 4.163425922999977 ], [ 42.240001678000169, 3.760000944000069 ], [ 41.846054078000066, 3.893122911999967 ], [ 41.93801498400012, 4.01874589900018 ], [ 41.982486726000161, 4.049065589000065 ], [ 42.013744355000142, 4.09783601700002 ] ] ] } },
{ "type": "Feature", "properties": { "GID_2": "SOM.7.5_1", "GID_0": "SOM", "COUNTRY": "Somalia", "GID_1": "SOM.7_1", "NAME_1": "Gedo", "NL_NAME_1": "NA", "NAME_2": "Garbahaaray", "VARNAME_2": "Garbaharey| Garbahaarreey", "NL_NAME_2": "NA", "TYPE_2": "District", "ENGTYPE_2": "District", "CC_2": "NA", "HASC_2": "SO.GE.GA" }, "geometry": { "type": "Polygon", "coordinates": [ [ [ 43.099998474000017, 3.229999066000119 ], [ 43.099998474000017, 3.06000089700018 ], [ 42.930000305000135, 3.040000915000064 ], [ 42.599998474000131, 3.069998981000026 ], [ 42.540027619000114, 2.74013590900006 ], [ 41.740001678000112, 2.989999057000034 ], [ 42.060001373000148, 3.660001040000168 ], [ 43.099998474000017, 3.229999066000119 ] ] ] } },
{ "type": "Feature", "properties": { "GID_2": "SOM.7.6_1", "GID_0": "SOM", "COUNTRY": "Somalia", "GID_1": "SOM.7_1", "NAME_1": "Gedo", "NL_NAME_1": "NA", "NAME_2": "Luuk", "VARNAME_2": "Luuq| Lugh", "NL_NAME_2": "NA", "TYPE_2": "District", "ENGTYPE_2": "District", "CC_2": "NA", "HASC_2": "SO.GE.LU" }, "geometry": { "type": "Polygon", "coordinates": [ [ [ 42.393688202000192, 4.163425922999977 ], [ 42.638816833000078, 4.207284928000092 ], [ 42.772689819000107, 4.264673710000068 ], [ 42.82509994500009, 4.267076970000119 ], [ 42.882766724000078, 4.305806160000088 ], [ 43.139999389000081, 3.849998951000146 ], [ 43.099998474000017, 3.229999066000119 ], [ 42.060001373000148, 3.660001040000168 ], [ 42.119998932000044, 3.790000915000121 ], [ 42.240001678000169, 3.760000944000069 ], [ 42.393688202000192, 4.163425922999977 ] ] ] } },
{ "type": "Feature", "properties": { "GID_2": "SOM.8.1_1", "GID_0": "SOM", "COUNTRY": "Somalia", "GID_1": "SOM.8_1", "NAME_1": "Hiiraan", "NL_NAME_1": "NA", "NAME_2": "Beled Weyn", "VARNAME_2": "Beletweyne| Beledweyne", "NL_NAME_2": "NA", "TYPE_2": "District", "ENGTYPE_2": "District", "CC_2": "NA", "HASC_2": "SO.HI.BW" }, "geometry": { "type": "Polygon", "coordinates": [ [ [ 44.589881896000065, 4.921791554000038 ], [ 44.903175354000041, 4.912710667000169 ], [ 45.001667022000106, 4.932207108000114 ], [ 45.533222198000146, 5.482010366000168 ], [ 45.70999908400006, 5.110001087000057 ], [ 46.040000915000064, 5.030001163000065 ], [ 46.229999541000041, 5.080000878000021 ], [ 46.209999084000117, 4.940000058000123 ], [ 46.1100006100001, 4.7399997710001 ], [ 46.150001525, 4.430000782000093 ], [ 45.70999908400006, 4.410000802000127 ], [ 45.549999237000179, 4.289999962000024 ], [ 45.389999389000195, 4.370001793000085 ], [ 45.049999237000065, 4.250000955000075 ], [ 44.970001221000075, 4.13000011400004 ], [ 44.749999999000124, 4.070000173000096 ], [ 44.589881896000065, 4.921791554000038 ] ] ] } },
{ "type": "Feature", "properties": { "GID_2": "SOM.8.2_1", "GID_0": "SOM", "COUNTRY": "Somalia", "GID_1": "SOM.8_1", "NAME_1": "Hiiraan", "NL_NAME_1": "NA", "NAME_2": "Buulo Burdo", "VARNAME_2": "Bulo-Burte| Bula-Brif| Buuloburd", "NL_NAME_2": "NA", "TYPE_2": "District", "ENGTYPE_2": "District", "CC_2": "NA", "HASC_2": "SO.HI.BB" }, "geometry": { "type": "Polygon", "coordinates": [ [ [ 44.779998780000028, 3.26999998000008 ], [ 44.770000457000151, 3.70000004700006 ], [ 44.799999237000122, 3.859999895000044 ], [ 44.749999999000124, 4.070000173000096 ], [ 44.970001221000075, 4.13000011400004 ], [ 45.049999237000065, 4.250000955000075 ], [ 45.389999389000195, 4.370001793000085 ], [ 45.549999237000179, 4.289999962000024 ], [ 45.70999908400006, 4.410000802000127 ], [ 46.150001525, 4.430000782000093 ], [ 46.400001525000164, 4.230000020000148 ], [ 46.389999389000195, 3.890000105000126 ], [ 46.080001832000107, 3.570000888000152 ], [ 45.159999847000051, 3.559999942000104 ], [ 45.27000045800014, 3.200001002000135 ], [ 45.150001526000153, 3.210000039000136 ], [ 45.06999969400016, 3.250000953000097 ], [ 44.779998780000028, 3.26999998000008 ] ] ] } },
{ "type": "Feature", "properties": { "GID_2": "SOM.8.3_1", "GID_0": "SOM", "COUNTRY": "Somalia", "GID_1": "SOM.8_1", "NAME_1": "Hiiraan", "NL_NAME_1": "NA", "NAME_2": "Jalalaqsi", "VARNAME_2": "NA", "NL_NAME_2": "NA", "TYPE_2": "District", "ENGTYPE_2": "District", "CC_2": "NA", "HASC_2": "SO.HI.JQ" }, "geometry": { "type": "Polygon", "coordinates": [ [ [ 45.27000045800014, 3.200001002000135 ], [ 45.159999847000051, 3.559999942000104 ], [ 46.080001832000107, 3.570000888000152 ], [ 46.029998779000096, 3.520000935000041 ], [ 45.93999862700008, 3.250000953000097 ], [ 45.27000045800014, 3.200001002000135 ] ] ] } },
{ "type": "Feature", "properties": { "GID_2": "SOM.9.1_1", "GID_0": "SOM", "COUNTRY": "Somalia", "GID_1": "SOM.9_1", "NAME_1": "Jubbada Dhexe", "NL_NAME_1": "NA", "NAME_2": "Bu'aale", "VARNAME_2": "Buale", "NL_NAME_2": "NA", "TYPE_2": "District", "ENGTYPE_2": "District", "CC_2": "NA", "HASC_2": "SO.JD.BU" }, "geometry": { "type": "Polygon", "coordinates": [ [ [ 43.27000045800014, 1.029999971000052 ], [ 42.630001068000126, 0.720000982000045 ], [ 42.430000306000125, 1.319998980000094 ], [ 42.200000763000105, 1.310001016000115 ], [ 42.200000763000105, 1.500000954000029 ], [ 42.979999543000133, 1.460000038000032 ], [ 43.27000045800014, 1.029999971000052 ] ] ] } },
{ "type": "Feature", "properties": { "GID_2": "SOM.9.2_1", "GID_0": "SOM", "COUNTRY": "Somalia", "GID_1": "SOM.9_1", "NAME_1": "Jubbada Dhexe", "NL_NAME_1": "NA", "NAME_2": "Jilib", "VARNAME_2": "NA", "NL_NAME_2": "NA", "TYPE_2": "District", "ENGTYPE_2": "District", "CC_2": "NA", "HASC_2": "SO.JD.JI" }, "geometry": { "type": "Polygon", "coordinates": [ [ [ 42.630001068000126, 0.720000982000045 ], [ 43.27000045800014, 1.029999971000052 ], [ 43.518470763000096, 0.675719024000045 ], [ 43.179584503000171, 0.316294998000046 ], [ 42.729999540999984, 0.310000003000141 ], [ 42.630001068000126, 0.720000982000045 ] ] ] } },
{ "type": "Feature", "properties": { "GID_2": "SOM.9.3_1", "GID_0": "SOM", "COUNTRY": "Somalia", "GID_1": "SOM.9_1", "NAME_1": "Jubbada Dhexe", "NL_NAME_1": "NA", "NAME_2": "Saakow", "VARNAME_2": "Sakow", "NL_NAME_2": "NA", "TYPE_2": "District", "ENGTYPE_2": "District", "CC_2": "NA", "HASC_2": "SO.JD.SA" }, "geometry": { "type": "Polygon", "coordinates": [ [ [ 42.40000152500005, 1.950000048000163 ], [ 42.52000045800014, 1.880000949000134 ], [ 42.979999543000133, 1.460000038000032 ], [ 42.200000763000105, 1.500000954000029 ], [ 42.200000763000105, 1.310001016000115 ], [ 41.420108796000136, 1.26000797800009 ], [ 41.640033721000066, 1.940000057000077 ], [ 42.40000152500005, 1.950000048000163 ] ] ] } },
{ "type": "Feature", "properties": { "GID_2": "SOM.10.1_1", "GID_0": "SOM", "COUNTRY": "Somalia", "GID_1": "SOM.10_1", "NAME_1": "Jubbada Hoose", "NL_NAME_1": "NA", "NAME_2": "Afmadow", "VARNAME_2": "NA", "NL_NAME_2": "NA", "TYPE_2": "District", "ENGTYPE_2": "District", "CC_2": "NA", "HASC_2": "SO.JH.AF" }, "geometry": { "type": "Polygon", "coordinates": [ [ [ 41.001087000000155, -0.226112 ], [ 41.000514984000063, 0.000001000000168 ], [ 40.988632202000076, 0.014013000999967 ], [ 40.994709014000193, 1.23104500900007 ], [ 42.430000306000125, 1.319998980000094 ], [ 42.630001068000126, 0.720000982000045 ], [ 42.729999540999984, 0.310000003000141 ], [ 42.549999237000065, 0.109999001000176 ], [ 42.549999003000039, -0.040000001999942 ], [ 41.88000106800007, -0.050000998999906 ], [ 41.001087000000155, -0.226112 ] ] ] } },
{ "type": "Feature", "properties": { "GID_2": "SOM.10.2_1", "GID_0": "SOM", "COUNTRY": "Somalia", "GID_1": "SOM.10_1", "NAME_1": "Jubbada Hoose", "NL_NAME_1": "NA", "NAME_2": "Badhaadhe", "VARNAME_2": "Badhadhe", "NL_NAME_2": "NA", "TYPE_2": "District", "ENGTYPE_2": "District", "CC_2": "NA", "HASC_2": "SO.JH.BA" }, "geometry": { "type": "MultiPolygon", "coordinates": [ [ [ [ 41.610973000000115, -1.61014 ], [ 41.613472000000115, -1.61264 ], [ 41.609585, -1.613471998999955 ], [ 41.610973000000115, -1.61014 ] ] ], [ [ [ 41.629028, -1.586528 ], [ 41.630138000000102, -1.588472 ], [ 41.628193, -1.589862 ], [ 41.629028, -1.586528 ] ] ], [ [ [ 41.639584, -1.561527999999896 ], [ 41.640141000000142, -1.56375 ], [ 41.63791700000013, -1.564305999999874 ], [ 41.639584, -1.561527999999896 ] ] ], [ [ [ 41.756805, -1.379582 ], [ 41.756805, -1.382361 ], [ 41.755417000000136, -1.382083 ], [ 41.756805, -1.379582 ] ] ], [ [ [ 41.913193000000149, -1.182916 ], [ 41.91264, -1.185694 ], [ 41.911804000000132, -1.185416 ], [ 41.913193000000149, -1.182916 ] ] ], [ [ [ 41.942638000000159, -1.142916999999898 ], [ 41.919861000000139, -1.169861 ], [ 41.915417000000105, -1.179027 ], [ 41.918442000000141, -1.154547 ], [ 41.930973000000108, -1.15625 ], [ 41.942638000000159, -1.142916999999898 ] ] ], [ [ [ 41.944584, -1.146526999999878 ], [ 41.946804, -1.141526999999883 ], [ 41.949028, -1.140417 ], [ 41.944584, -1.146526999999878 ] ] ], [ [ [ 41.983471, -1.077084 ], [ 41.993752, -1.085695 ], [ 41.974030000000141, -1.096249 ], [ 41.983471, -1.077084 ] ] ], [ [ [ 42.002361000000178, -1.067360999999892 ], [ 42.000694000000124, -1.066804999999817 ], [ 42.00264, -1.065694999999891 ], [ 42.002361000000178, -1.067360999999892 ] ] ], [ [ [ 42.003193000000124, -1.054584 ], [ 42.004860000000178, -1.05625 ], [ 42.003193000000124, -1.057916 ], [ 42.003193000000124, -1.054584 ] ] ], [ [ [ 42.007915, -1.050138 ], [ 42.005974000000151, -1.050138 ], [ 42.007915, -1.047916 ], [ 42.007915, -1.050138 ] ] ], [ [ [ 41.77597, -1.360417 ], [ 41.774582000000123, -1.359027 ], [ 41.776249000000178, -1.358195 ], [ 41.77597, -1.360417 ] ] ], [ [ [ 41.787640000000124, -1.34125 ], [ 41.788193, -1.344028 ], [ 41.784027000000151, -1.347361999999862 ], [ 41.787640000000124, -1.34125 ] ] ], [ [ [ 41.001087000000155, -0.226112 ], [ 41.290001000000188, -0.169999 ], [ 41.913414000000103, -0.873345 ], [ 41.943386, -0.880711 ], [ 41.968521000000123, -0.909083999999837 ], [ 41.9702640000001, -1.003406 ], [ 41.986229, -1.016527 ], [ 41.928749, -1.129028 ], [ 41.933472000000108, -1.145139 ], [ 41.924583, -1.144305 ], [ 41.875694, -1.200417 ], [ 41.888474, -1.208472 ], [ 41.907082, -1.18986 ], [ 41.882362, -1.21986 ], [ 41.839584000000116, -1.223750999999879 ], [ 41.784027000000151, -1.342362 ], [ 41.749584000000141, -1.376528 ], [ 41.59486, -1.60958399999987 ], [ 41.586529000000155, -1.632639 ], [ 41.597916000000168, -1.633194999999887 ], [ 41.58736, -1.647082 ], [ 41.575416566000172, -1.642361998999888 ], [ 41.577358, -1.584806999999898 ], [ 41.004299000000174, -0.823577999999827 ], [ 41.001087000000155, -0.226112 ] ] ] ] } },
{ "type": "Feature", "properties": { "GID_2": "SOM.10.3_1", "GID_0": "SOM", "COUNTRY": "Somalia", "GID_1": "SOM.10_1", "NAME_1": "Jubbada Hoose", "NL_NAME_1": "NA", "NAME_2": "Jamaame", "VARNAME_2": "Jamame", "NL_NAME_2": "NA", "TYPE_2": "District", "ENGTYPE_2": "District", "CC_2": "NA", "HASC_2": "SO.JH.JA" }, "geometry": { "type": "Polygon", "coordinates": [ [ [ 42.729999540999984, 0.310000003000141 ], [ 43.179584503000171, 0.316294998000046 ], [ 42.714027000000158, -0.176243999999883 ], [ 42.549999003000039, -0.040000001999942 ], [ 42.549999237000065, 0.109999001000176 ], [ 42.729999540999984, 0.310000003000141 ] ] ] } },
{ "type": "Feature", "properties": { "GID_2": "SOM.10.4_1", "GID_0": "SOM", "COUNTRY": "Somalia", "GID_1": "SOM.10_1", "NAME_1": "Jubbada Hoose", "NL_NAME_1": "NA", "NAME_2": "Kismaayo", "VARNAME_2": "Kismayo", "NL_NAME_2": "NA", "TYPE_2": "District", "ENGTYPE_2": "District", "CC_2": "NA", "HASC_2": "SO.JH.KI" }, "geometry": { "type": "MultiPolygon", "coordinates": [ [ [ [ 42.024306999000146, -1.028749999999889 ], [ 42.022914999000079, -1.036527 ], [ 42.018749, -1.040971 ], [ 42.017918001000169, -1.032081998999899 ], [ 42.024306999000146, -1.028749999999889 ] ] ], [ [ [ 42.054585, -0.989304999999888 ], [ 42.048752, -1.006805 ], [ 42.025696, -1.034582999999884 ], [ 42.03236, -0.999584 ], [ 42.054585, -0.989304999999888 ] ] ], [ [ [ 42.062084, -0.981251 ], [ 42.060139, -0.980417 ], [ 42.064861000000121, -0.97625 ], [ 42.062084, -0.981251 ] ] ], [ [ [ 42.081528000000162, -0.975972 ], [ 42.07958200000013, -0.97375 ], [ 42.08458300000018, -0.970972 ], [ 42.081528000000162, -0.975972 ] ] ], [ [ [ 42.104862000000139, -0.943193999999835 ], [ 42.102917000000105, -0.950694999999882 ], [ 42.099583000000166, -0.952360999999883 ], [ 42.104862000000139, -0.943193999999835 ] ] ], [ [ [ 42.093472, -0.944584 ], [ 42.094860000000153, -0.941806 ], [ 42.095974000000126, -0.941527999999835 ], [ 42.093472, -0.944584 ] ] ], [ [ [ 42.088196000000153, -0.924304 ], [ 42.087639, -0.927361 ], [ 42.08625, -0.927082999999868 ], [ 42.088196000000153, -0.924304 ] ] ], [ [ [ 42.117363, -0.919028 ], [ 42.119862, -0.921249999999873 ], [ 42.115971, -0.925416999999868 ], [ 42.117363, -0.919028 ] ] ], [ [ [ 42.225693, -0.799027 ], [ 42.214027, -0.815973 ], [ 42.205418, -0.82208299999985 ], [ 42.225693, -0.799027 ] ] ], [ [ [ 42.235416, -0.785971999999845 ], [ 42.238194000000192, -0.784584 ], [ 42.23263900000012, -0.793472999999892 ], [ 42.235416, -0.785971999999845 ] ] ], [ [ [ 42.254581000000144, -0.76402899999988 ], [ 42.252083, -0.770694999999876 ], [ 42.246529, -0.769860999999878 ], [ 42.254581000000144, -0.76402899999988 ] ] ], [ [ [ 42.259861, -0.74764 ], [ 42.255695000000117, -0.750972 ], [ 42.254028, -0.754584 ], [ 42.256798, -0.748462 ], [ 42.259861, -0.74764 ] ] ], [ [ [ 42.309307000000103, -0.702084 ], [ 42.268196000000103, -0.74764 ], [ 42.262638, -0.750693999999839 ], [ 42.278194, -0.725971999999899 ], [ 42.309307000000103, -0.702084 ] ] ], [ [ [ 42.309860000000185, -0.697362 ], [ 42.310417, -0.699862 ], [ 42.309860000000185, -0.699862 ], [ 42.309860000000185, -0.697362 ] ] ], [ [ [ 42.313751, -0.695693 ], [ 42.31625, -0.690417 ], [ 42.319027000000176, -0.688749 ], [ 42.313751, -0.695693 ] ] ], [ [ [ 42.350971000000186, -0.624584 ], [ 42.337082000000123, -0.657639 ], [ 42.325974000000144, -0.663473 ], [ 42.322639, -0.642917999999895 ], [ 42.350971000000186, -0.624584 ] ] ], [ [ [ 42.098194000000149, -0.916249999999877 ], [ 42.098751, -0.917915999999877 ], [ 42.097084000000166, -0.919028 ], [ 42.098194000000149, -0.916249999999877 ] ] ], [ [ [ 42.202915, -0.826248999999848 ], [ 42.141529000000105, -0.899305 ], [ 42.128193000000181, -0.905973 ], [ 42.170139000000177, -0.848473 ], [ 42.202915, -0.826248999999848 ] ] ], [ [ [ 42.714027000000158, -0.176243999999883 ], [ 42.58986300000015, -0.298194 ], [ 42.555695000000128, -0.356806 ], [ 42.557362, -0.380971999999815 ], [ 42.544861, -0.389583 ], [ 42.54124800000011, -0.387639 ], [ 42.55541600000015, -0.377639999999815 ], [ 42.544861, -0.366249 ], [ 42.521805, -0.375416 ], [ 42.474583000000166, -0.433472 ], [ 42.477085, -0.465416 ], [ 42.457916000000125, -0.455416 ], [ 42.36264, -0.561806 ], [ 42.178196000000128, -0.809584 ], [ 42.108749, -0.844582999999886 ], [ 42.083195000000103, -0.900139 ], [ 42.029839000000152, -0.958462 ], [ 42.035694, -0.975694 ], [ 41.986229, -1.016527 ], [ 41.9702640000001, -1.003406 ], [ 41.965782, -0.904604 ], [ 41.913414000000103, -0.873345 ], [ 41.290001000000188, -0.169999 ], [ 41.88000106800007, -0.050000998999906 ], [ 42.549999003000039, -0.040000001999942 ], [ 42.714027000000158, -0.176243999999883 ] ] ], [ [ [ 42.357082000000105, -0.604861 ], [ 42.354027, -0.611248999999816 ], [ 42.352917000000105, -0.610970999999893 ], [ 42.357082000000105, -0.604861 ] ] ], [ [ [ 42.364029, -0.603750999999818 ], [ 42.36375, -0.606527 ], [ 42.36264, -0.606527 ], [ 42.364029, -0.603750999999818 ] ] ], [ [ [ 42.378471, -0.590972 ], [ 42.380974, -0.583749 ], [ 42.385139, -0.580417 ], [ 42.378471, -0.590972 ] ] ], [ [ [ 42.40236300000015, -0.561527999999896 ], [ 42.39986000000016, -0.565693999999894 ], [ 42.39485900000011, -0.568193999999892 ], [ 42.399029000000155, -0.562361999999894 ], [ 42.40236300000015, -0.561527999999896 ] ] ], [ [ [ 42.405693000000156, -0.557083 ], [ 42.404305, -0.561806 ], [ 42.403473000000133, -0.561806 ], [ 42.405693000000156, -0.557083 ] ] ], [ [ [ 42.402637, -0.555139 ], [ 42.406528000000151, -0.555973 ], [ 42.401806, -0.557917 ], [ 42.402637, -0.555139 ] ] ], [ [ [ 42.413750000000107, -0.549583 ], [ 42.416248, -0.548195 ], [ 42.413750000000107, -0.550973 ], [ 42.413750000000107, -0.549583 ] ] ], [ [ [ 42.441250000000139, -0.540138 ], [ 42.443474000000151, -0.538749999999879 ], [ 42.441250000000139, -0.541806 ], [ 42.441250000000139, -0.540138 ] ] ], [ [ [ 42.426807, -0.533471 ], [ 42.425972000000115, -0.538194 ], [ 42.421806000000174, -0.54041599999988 ], [ 42.426807, -0.533471 ] ] ], [ [ [ 42.435974, -0.520973 ], [ 42.431252000000143, -0.522361 ], [ 42.438194, -0.516806 ], [ 42.435974, -0.520973 ] ] ], [ [ [ 42.477917000000161, -0.477361 ], [ 42.477917000000161, -0.479584 ], [ 42.476807000000122, -0.479584 ], [ 42.477917000000161, -0.477361 ] ] ], [ [ [ 42.506527000000176, -0.436249999999859 ], [ 42.510139, -0.440695 ], [ 42.507084, -0.440417 ], [ 42.506527000000176, -0.436249999999859 ] ] ] ] } },
{ "type": "Feature", "properties": { "GID_2": "SOM.11.1_1", "GID_0": "SOM", "COUNTRY": "Somalia", "GID_1": "SOM.11_1", "NAME_1": "Mudug", "NL_NAME_1": "NA", "NAME_2": "Gaalkacayo", "VARNAME_2": "Galkacyo| Galkayo", "NL_NAME_2": "NA", "TYPE_2": "District", "ENGTYPE_2": "District", "CC_2": "NA", "HASC_2": "SO.MU.GA" }, "geometry": { "type": "Polygon", "coordinates": [ [ [ 47.32526016200012, 7.349651337000182 ], [ 47.528480529000092, 7.562494277999974 ], [ 48.499999999000124, 7.409999847999984 ], [ 48.470001221000075, 6.729999066000119 ], [ 47.860000609000053, 6.739999772000147 ], [ 47.669998168000177, 6.590001106000045 ], [ 47.599998473000142, 6.280000209000093 ], [ 46.53020477300015, 6.519646644000034 ], [ 46.869777680000141, 6.872609616000148 ], [ 47.080001831000175, 6.719998837000048 ], [ 47.509998321000126, 7.19000005800018 ], [ 47.32526016200012, 7.349651337000182 ] ] ] } },
{ "type": "Feature", "properties": { "GID_2": "SOM.11.2_1", "GID_0": "SOM", "COUNTRY": "Somalia", "GID_1": "SOM.11_1", "NAME_1": "Mudug", "NL_NAME_1": "NA", "NAME_2": "Goldogob", "VARNAME_2": "NA", "NL_NAME_2": "NA", "TYPE_2": "District", "ENGTYPE_2": "District", "CC_2": "NA", "HASC_2": "SO.MU.GO" }, "geometry": { "type": "Polygon", "coordinates": [ [ [ 46.869777680000141, 6.872609616000148 ], [ 47.32526016200012, 7.349651337000182 ], [ 47.509998321000126, 7.19000005800018 ], [ 47.080001831000175, 6.719998837000048 ], [ 46.869777680000141, 6.872609616000148 ] ] ] } },
{ "type": "Feature", "properties": { "GID_2": "SOM.11.3_1", "GID_0": "SOM", "COUNTRY": "Somalia", "GID_1": "SOM.11_1", "NAME_1": "Mudug", "NL_NAME_1": "NA", "NAME_2": "Hobyo", "VARNAME_2": "NA", "NL_NAME_2": "NA", "TYPE_2": "District", "ENGTYPE_2": "District", "CC_2": "NA", "HASC_2": "SO.MU.HO" }, "geometry": { "type": "Polygon", "coordinates": [ [ [ 47.349998474000074, 5.750000954000086 ], [ 47.599998473000142, 6.280000209000093 ], [ 47.669998168000177, 6.590001106000045 ], [ 47.860000609000053, 6.739999772000147 ], [ 48.470001221000075, 6.729999066000119 ], [ 48.650001526000153, 6.610001088000047 ], [ 49.155418396000073, 6.605493069000147 ], [ 49.085140228000114, 6.414305210000123 ], [ 49.080139159000112, 6.294583798000133 ], [ 49.060695648000149, 6.22958278700014 ], [ 48.916526795000038, 5.928472997000142 ], [ 48.629859924000186, 5.474027157000137 ], [ 48.281528472000161, 5.01769590400005 ], [ 47.610000609999986, 5.190001010000117 ], [ 47.470001221000132, 5.569999219000067 ], [ 47.349998474000074, 5.750000954000086 ] ] ] } },
{ "type": "Feature", "properties": { "GID_2": "SOM.11.4_1", "GID_0": "SOM", "COUNTRY": "Somalia", "GID_1": "SOM.11_1", "NAME_1": "Mudug", "NL_NAME_1": "NA", "NAME_2": "Jariiban", "VARNAME_2": "Jeriban|Jarban", "NL_NAME_2": "NA", "TYPE_2": "District", "ENGTYPE_2": "District", "CC_2": "NA", "HASC_2": "SO.MU.JE" }, "geometry": { "type": "Polygon", "coordinates": [ [ [ 48.470001221000075, 6.729999066000119 ], [ 48.499999999000124, 7.409999847999984 ], [ 49.029998778999982, 7.710000038000032 ], [ 49.189998627000136, 7.699999809000133 ], [ 49.43999862700008, 7.580000878000078 ], [ 49.500000001000103, 7.570000172 ], [ 49.646247864000031, 7.402914048000127 ], [ 49.472084045000088, 7.168472767000083 ], [ 49.305416108000031, 6.9090280530001 ], [ 49.214584351000099, 6.748472214 ], [ 49.155418396000073, 6.605493069000147 ], [ 48.650001526000153, 6.610001088000047 ], [ 48.470001221000075, 6.729999066000119 ] ] ] } },
{ "type": "Feature", "properties": { "GID_2": "SOM.11.5_1", "GID_0": "SOM", "COUNTRY": "Somalia", "GID_1": "SOM.11_1", "NAME_1": "Mudug", "NL_NAME_1": "NA", "NAME_2": "Xarardheere", "VARNAME_2": "Haradhere| Harardheere", "NL_NAME_2": "NA", "TYPE_2": "District", "ENGTYPE_2": "District", "CC_2": "NA", "HASC_2": "SO.MU.HA" }, "geometry": { "type": "Polygon", "coordinates": [ [ [ 47.5, 4.489998818000174 ], [ 47.610000609999986, 5.190001010000117 ], [ 48.281528472000161, 5.01769590400005 ], [ 47.985416413000053, 4.509861947000047 ], [ 47.835140229000103, 4.343194962000098 ], [ 47.5, 4.489998818000174 ] ] ] } },
{ "type": "Feature", "properties": { "GID_2": "SOM.12.1_1", "GID_0": "SOM", "COUNTRY": "Somalia", "GID_1": "SOM.12_1", "NAME_1": "Nugaal", "NL_NAME_1": "NA", "NAME_2": "Burtinle", "VARNAME_2": "NA", "NL_NAME_2": "NA", "TYPE_2": "District", "ENGTYPE_2": "District", "CC_2": "NA", "HASC_2": "SO.NU.BU" }, "geometry": { "type": "Polygon", "coordinates": [ [ [ 47.528480529000092, 7.562494277999974 ], [ 47.958229065000126, 8.01258373200011 ], [ 47.936557769000103, 8.011961938000184 ], [ 48.119998932000101, 8.189999580000119 ], [ 49.189998627000136, 8.0 ], [ 49.029998778999982, 7.710000038000032 ], [ 48.499999999000124, 7.409999847999984 ], [ 47.528480529000092, 7.562494277999974 ] ] ] } },
{ "type": "Feature", "properties": { "GID_2": "SOM.12.2_1", "GID_0": "SOM", "COUNTRY": "Somalia", "GID_1": "SOM.12_1", "NAME_1": "Nugaal", "NL_NAME_1": "NA", "NAME_2": "Eyl", "VARNAME_2": "NA", "NL_NAME_2": "NA", "TYPE_2": "District", "ENGTYPE_2": "District", "CC_2": "NA", "HASC_2": "SO.NU.EY" }, "geometry": { "type": "Polygon", "coordinates": [ [ [ 49.840000153000176, 8.330000878000078 ], [ 49.930000305000192, 8.460000038000089 ], [ 50.049999236000076, 8.439997673 ], [ 50.178195953000056, 8.329583169000045 ], [ 50.146526337000182, 8.278750419 ], [ 50.126525879000155, 8.192360878000102 ], [ 49.970695495000029, 8.082082748000062 ], [ 49.818195344, 7.920138837000081 ], [ 49.804584503000171, 7.826250076000179 ], [ 49.817081452000082, 7.797361851000119 ], [ 49.835140228000171, 7.794583799000122 ], [ 49.824028015000067, 7.73847103200012 ], [ 49.76930618300014, 7.667637825000156 ], [ 49.742637633000129, 7.57902813000004 ], [ 49.647083283000143, 7.403194904000088 ], [ 49.500000001000103, 7.570000172 ], [ 49.43999862700008, 7.580000878000078 ], [ 49.189998627000136, 7.699999809000133 ], [ 49.029998778999982, 7.710000038000032 ], [ 49.189998627000136, 8.0 ], [ 49.159999846000062, 8.380000114000097 ], [ 49.290000915000121, 8.689998627000023 ], [ 49.450000763000105, 8.590000154000109 ], [ 49.680000305000021, 8.580000878000021 ], [ 49.779998779000039, 8.529998780000142 ], [ 49.840000153000176, 8.330000878000078 ] ] ] } },
{ "type": "Feature", "properties": { "GID_2": "SOM.12.3_1", "GID_0": "SOM", "COUNTRY": "Somalia", "GID_1": "SOM.12_1", "NAME_1": "Nugaal", "NL_NAME_1": "NA", "NAME_2": "Garoowe", "VARNAME_2": "Garowe", "NL_NAME_2": "NA", "TYPE_2": "District", "ENGTYPE_2": "District", "CC_2": "NA", "HASC_2": "SO.NU.GA" }, "geometry": { "type": "Polygon", "coordinates": [ [ [ 49.080001830000072, 9.140001297000083 ], [ 49.110000611000146, 8.899998665000055 ], [ 49.180000306000068, 8.770001411000067 ], [ 49.290000915000121, 8.689998627000023 ], [ 49.159999846000062, 8.380000114000097 ], [ 49.189998627000136, 8.0 ], [ 48.020000457000037, 8.210001944999988 ], [ 48.549999237000122, 8.760001183000099 ], [ 48.68999862700008, 8.750001907000183 ], [ 49.080001830000072, 9.140001297000083 ] ] ] } },
{ "type": "Feature", "properties": { "GID_2": "SOM.13.1_1", "GID_0": "SOM", "COUNTRY": "Somalia", "GID_1": "SOM.13_1", "NAME_1": "Sanaag", "NL_NAME_1": "NA", "NAME_2": "Badhan", "VARNAME_2": "Las Qoray", "NL_NAME_2": "NA", "TYPE_2": "District", "ENGTYPE_2": "District", "CC_2": "NA", "HASC_2": "SO.SA.BA" }, "geometry": { "type": "Polygon", "coordinates": [ [ [ 48.658195494999973, 11.32569408400019 ], [ 48.91477203300019, 11.239595414000064 ], [ 49.029998778999982, 10.780000686000051 ], [ 49.060001373000148, 9.570000649000121 ], [ 48.560001373000091, 9.540000915 ], [ 48.58000200000015, 10.489999 ], [ 47.853166, 11.11541700000015 ], [ 48.139305115000127, 11.125693322000075 ], [ 48.238750457000151, 11.205693246000067 ], [ 48.305416106000052, 11.222639084999969 ], [ 48.35458374000018, 11.270137788000113 ], [ 48.475692750000178, 11.285139084000036 ], [ 48.525970459000064, 11.310417176000044 ], [ 48.597362519000114, 11.308472634000111 ], [ 48.658195494999973, 11.32569408400019 ] ] ] } },
{ "type": "Feature", "properties": { "GID_2": "SOM.13.2_1", "GID_0": "SOM", "COUNTRY": "Somalia", "GID_1": "SOM.13_1", "NAME_1": "Sanaag", "NL_NAME_1": "NA", "NAME_2": "Ceel-Afwein", "VARNAME_2": "Ceelafyeyn| Ceel Afwayn| El Afwe", "NL_NAME_2": "NA", "TYPE_2": "District", "ENGTYPE_2": "District", "CC_2": "NA", "HASC_2": "SO.SA.CL" }, "geometry": { "type": "Polygon", "coordinates": [ [ [ 47.069999695000035, 9.43999862700008 ], [ 46.840000153000062, 9.420001985000056 ], [ 46.009998322000172, 10.080000876999975 ], [ 46.036178589000144, 10.770973205000132 ], [ 46.117916107000042, 10.764860154000189 ], [ 46.234306335000042, 10.783193588000074 ], [ 46.342918395000027, 10.69208335899998 ], [ 46.422084809000182, 10.680137634000062 ], [ 46.652637481000056, 10.740139008000028 ], [ 46.74246600000015, 10.789028 ], [ 47.360000610000043, 10.149999619000084 ], [ 47.360000610000043, 9.890001296000037 ], [ 47.069999695000035, 9.43999862700008 ] ] ] } },
{ "type": "Feature", "properties": { "GID_2": "SOM.13.3_1", "GID_0": "SOM", "COUNTRY": "Somalia", "GID_1": "SOM.13_1", "NAME_1": "Sanaag", "NL_NAME_1": "NA", "NAME_2": "Ceerigaabo", "VARNAME_2": "Ceerigabo|Erigavo| Erigabo", "NL_NAME_2": "NA", "TYPE_2": "District", "ENGTYPE_2": "District", "CC_2": "NA", "HASC_2": "SO.SA.CR" }, "geometry": { "type": "MultiPolygon", "coordinates": [ [ [ [ 47.854238047000194, 11.114542015000097 ], [ 48.58000200000015, 10.489999 ], [ 48.560001373000091, 9.540000915 ], [ 47.069999695000035, 9.43999862700008 ], [ 47.360000610000043, 9.890001296000037 ], [ 47.360000610000043, 10.149999619000084 ], [ 46.74246600000015, 10.789028 ], [ 46.869026000000133, 10.860415 ], [ 46.930973000000165, 10.91625 ], [ 46.990417, 10.929307 ], [ 47.008194, 10.960695 ], [ 47.100971000000129, 10.988751 ], [ 47.149029, 11.064029000000176 ], [ 47.411251, 11.177917 ], [ 47.538471, 11.181806000000165 ], [ 47.629581, 11.115139 ], [ 47.694305000000156, 11.089861 ], [ 47.795696, 11.122917 ], [ 47.854238047000194, 11.114542015000097 ] ] ], [ [ [ 46.928196, 10.919028 ], [ 46.928749000000153, 10.917084001000035 ], [ 46.926529001000063, 10.917362001000129 ], [ 46.928196, 10.919028 ] ] ], [ [ [ 47.249306, 11.229583000000162 ], [ 47.240971000000172, 11.219584 ], [ 47.234028000000137, 11.216528000000153 ], [ 47.239582000000155, 11.223751 ], [ 47.249306, 11.229583000000162 ] ] ] ] } },
{ "type": "Feature", "properties": { "GID_2": "SOM.14.1_1", "GID_0": "SOM", "COUNTRY": "Somalia", "GID_1": "SOM.14_1", "NAME_1": "Shabeellaha Dhexe", "NL_NAME_1": "NA", "NAME_2": "Aadan", "VARNAME_2": "Adan Yabal| Aden Yabal", "NL_NAME_2": "NA", "TYPE_2": "District", "ENGTYPE_2": "District", "CC_2": "NA", "HASC_2": "SO.SD.AY" }, "geometry": { "type": "Polygon", "coordinates": [ [ [ 46.389999389000195, 3.890000105000126 ], [ 47.035694123000042, 3.471806049000122 ], [ 46.732574464000095, 3.13621306400006 ], [ 46.639999391000117, 3.300000906000093 ], [ 46.031734466000046, 3.519373893000022 ], [ 46.389999389000195, 3.890000105000126 ] ] ] } },
{ "type": "Feature", "properties": { "GID_2": "SOM.14.2_1", "GID_0": "SOM", "COUNTRY": "Somalia", "GID_1": "SOM.14_1", "NAME_1": "Shabeellaha Dhexe", "NL_NAME_1": "NA", "NAME_2": "Balcad", "VARNAME_2": "Ballcad| Balad", "NL_NAME_2": "NA", "TYPE_2": "District", "ENGTYPE_2": "District", "CC_2": "NA", "HASC_2": "SO.SD.BA" }, "geometry": { "type": "Polygon", "coordinates": [ [ [ 45.603473663000102, 2.18304395600012 ], [ 45.389999389000195, 2.150001050000128 ], [ 45.330002, 2.180001 ], [ 45.339999998999986, 2.719998947000136 ], [ 45.459999084000117, 2.730000018999988 ], [ 45.499999999000181, 2.700000048000163 ], [ 45.93999862700008, 2.719999075000146 ], [ 46.02000045800014, 2.680000066000048 ], [ 46.106529235000039, 2.517638923000163 ], [ 45.901805877000129, 2.352082967000058 ], [ 45.603473663000102, 2.18304395600012 ] ] ] } },
{ "type": "Feature", "properties": { "GID_2": "SOM.14.3_1", "GID_0": "SOM", "COUNTRY": "Somalia", "GID_1": "SOM.14_1", "NAME_1": "Shabeellaha Dhexe", "NL_NAME_1": "NA", "NAME_2": "Cadale", "VARNAME_2": "Caadale| Adale", "NL_NAME_2": "NA", "TYPE_2": "District", "ENGTYPE_2": "District", "CC_2": "NA", "HASC_2": "SO.SD.CA" }, "geometry": { "type": "Polygon", "coordinates": [ [ [ 45.93999862700008, 3.250000953000097 ], [ 46.029998779000096, 3.520000935000041 ], [ 46.639999391000117, 3.300000906000093 ], [ 46.732574464000095, 3.13621306400006 ], [ 46.574584961000085, 2.977639913000075 ], [ 46.345138549000069, 2.787360907000163 ], [ 46.297637940000129, 2.712084054000115 ], [ 46.219581603000108, 2.656805992000102 ], [ 46.10725402900016, 2.518919945000107 ], [ 46.02000045800014, 2.680000066000048 ], [ 45.93999862700008, 2.719999075000146 ], [ 45.93999862700008, 3.250000953000097 ] ] ] } },
{ "type": "Feature", "properties": { "GID_2": "SOM.14.4_1", "GID_0": "SOM", "COUNTRY": "Somalia", "GID_1": "SOM.14_1", "NAME_1": "Shabeellaha Dhexe", "NL_NAME_1": "NA", "NAME_2": "Jawhar", "VARNAME_2": "Jowhar", "NL_NAME_2": "NA", "TYPE_2": "District", "ENGTYPE_2": "District", "CC_2": "NA", "HASC_2": "SO.SD.JO" }, "geometry": { "type": "Polygon", "coordinates": [ [ [ 45.06999969400016, 3.250000953000097 ], [ 45.150001526000153, 3.210000039000136 ], [ 45.27000045800014, 3.200001002000135 ], [ 45.93999862700008, 3.250000953000097 ], [ 45.93999862700008, 2.719999075000146 ], [ 45.499999999000181, 2.700000048000163 ], [ 45.459999084000117, 2.730000018999988 ], [ 45.339999998999986, 2.719998947000136 ], [ 45.119998932000158, 3.040000915000064 ], [ 45.06999969400016, 3.250000953000097 ] ] ] } },
{ "type": "Feature", "properties": { "GID_2": "SOM.15.1_1", "GID_0": "SOM", "COUNTRY": "Somalia", "GID_1": "SOM.15_1", "NAME_1": "Shabeellaha Hoose", "NL_NAME_1": "NA", "NAME_2": "Afgooye", "VARNAME_2": "Afgoi| Afgoye", "NL_NAME_2": "NA", "TYPE_2": "District", "ENGTYPE_2": "District", "CC_2": "NA", "HASC_2": "NA" }, "geometry": { "type": "MultiPolygon", "coordinates": [ [ [ [ 45.09097300000019, 1.906806 ], [ 45.088748999000131, 1.907084000000168 ], [ 45.09097300000019, 1.907916000000114 ], [ 45.09097300000019, 1.906806 ] ] ], [ [ [ 45.389999389000195, 2.150001050000128 ], [ 45.266251, 1.988194 ], [ 45.132637000000102, 1.933472 ], [ 45.126251, 1.925139000000172 ], [ 45.091526000000101, 1.910694 ], [ 45.08430481, 1.903865997000139 ], [ 44.830001831000118, 1.899999976000061 ], [ 44.65000152600004, 2.220000028000015 ], [ 44.880001069000116, 2.340001106000045 ], [ 45.339999998999986, 2.719998947000136 ], [ 45.330002, 2.180001 ], [ 45.389999389000195, 2.150001050000128 ] ] ] ] } },
{ "type": "Feature", "properties": { "GID_2": "SOM.15.2_1", "GID_0": "SOM", "COUNTRY": "Somalia", "GID_1": "SOM.15_1", "NAME_1": "Shabeellaha Hoose", "NL_NAME_1": "NA", "NAME_2": "Baraawe", "VARNAME_2": "Braawe", "NL_NAME_2": "NA", "TYPE_2": "District", "ENGTYPE_2": "District", "CC_2": "NA", "HASC_2": "SO.SH.BR" }, "geometry": { "type": "MultiPolygon", "coordinates": [ [ [ [ 43.518470763000096, 0.675719024000045 ], [ 43.349998331000052, 0.919999199000074 ], [ 44.180000200000165, 1.420001090000028 ], [ 44.380001000000107, 1.509999 ], [ 44.449306000000149, 1.473791000000176 ], [ 44.168194000000142, 1.239860000000135 ], [ 44.130138000000102, 1.183472 ], [ 44.047085, 1.133194 ], [ 44.02208300000018, 1.087361000000158 ], [ 43.979305000000124, 1.069306 ], [ 43.938194000000124, 1.020694 ], [ 43.778473000000133, 0.910694 ], [ 43.518470763000096, 0.675719024000045 ] ] ], [ [ [ 44.037917999000058, 1.107082000000105 ], [ 44.039306999000075, 1.104306000000122 ], [ 44.035137, 1.101528 ], [ 44.037917999000058, 1.107082000000105 ] ] ] ] } },
{ "type": "Feature", "properties": { "GID_2": "SOM.15.3_1", "GID_0": "SOM", "COUNTRY": "Somalia", "GID_1": "SOM.15_1", "NAME_1": "Shabeellaha Hoose", "NL_NAME_1": "NA", "NAME_2": "Kuntuwaaray", "VARNAME_2": "Kurtunwaarey| Kurtun Warrey", "NL_NAME_2": "NA", "TYPE_2": "District", "ENGTYPE_2": "District", "CC_2": "NA", "HASC_2": "SO.SH.KU" }, "geometry": { "type": "Polygon", "coordinates": [ [ [ 43.580001831000175, 1.75999999000004 ], [ 43.880001069000116, 1.880000949000134 ], [ 44.509998321000182, 1.660001039000122 ], [ 44.380001000000107, 1.509999 ], [ 44.180000200000165, 1.420001090000028 ], [ 43.580001831000175, 1.75999999000004 ] ] ] } },
{ "type": "Feature", "properties": { "GID_2": "SOM.15.4_1", "GID_0": "SOM", "COUNTRY": "Somalia", "GID_1": "SOM.15_1", "NAME_1": "Shabeellaha Hoose", "NL_NAME_1": "NA", "NAME_2": "Marka", "VARNAME_2": "Mark Afgooye", "NL_NAME_2": "NA", "TYPE_2": "District", "ENGTYPE_2": "District", "CC_2": "NA", "HASC_2": "SO.SH.MA" }, "geometry": { "type": "Polygon", "coordinates": [ [ [ 44.830001831000118, 1.899999976000061 ], [ 45.08430481, 1.903865997000139 ], [ 44.761528015000067, 1.710417032 ], [ 44.449306000000149, 1.473791000000176 ], [ 44.380001000000107, 1.509999 ], [ 44.509998321000182, 1.660001039000122 ], [ 44.830001831000118, 1.899999976000061 ] ] ] } },
{ "type": "Feature", "properties": { "GID_2": "SOM.15.5_1", "GID_0": "SOM", "COUNTRY": "Somalia", "GID_1": "SOM.15_1", "NAME_1": "Shabeellaha Hoose", "NL_NAME_1": "NA", "NAME_2": "Qoryooley", "VARNAME_2": "Qoryoyley| Qoryoley", "NL_NAME_2": "NA", "TYPE_2": "District", "ENGTYPE_2": "District", "CC_2": "NA", "HASC_2": "SO.SH.QO" }, "geometry": { "type": "Polygon", "coordinates": [ [ [ 43.880001069000116, 1.880000949000134 ], [ 44.65000152600004, 2.220000028000015 ], [ 44.830001831000118, 1.899999976000061 ], [ 44.509998321000182, 1.660001039000122 ], [ 43.880001069000116, 1.880000949000134 ] ] ] } },
{ "type": "Feature", "properties": { "GID_2": "SOM.15.6_1", "GID_0": "SOM", "COUNTRY": "Somalia", "GID_1": "SOM.15_1", "NAME_1": "Shabeellaha Hoose", "NL_NAME_1": "NA", "NAME_2": "Sablale", "VARNAME_2": "Sablaale", "NL_NAME_2": "NA", "TYPE_2": "District", "ENGTYPE_2": "District", "CC_2": "NA", "HASC_2": "SO.SH.SA" }, "geometry": { "type": "Polygon", "coordinates": [ [ [ 42.979999543000133, 1.460000038000032 ], [ 43.580001831000175, 1.75999999000004 ], [ 44.180000200000165, 1.420001090000028 ], [ 43.349998331000052, 0.919999199000074 ], [ 42.979999543000133, 1.460000038000032 ] ] ] } },
{ "type": "Feature", "properties": { "GID_2": "SOM.15.7_1", "GID_0": "SOM", "COUNTRY": "Somalia", "GID_1": "SOM.15_1", "NAME_1": "Shabeellaha Hoose", "NL_NAME_1": "NA", "NAME_2": "Wanla Weyn", "VARNAME_2": "Wanlaweyne| Wanle Weyne", "NL_NAME_2": "NA", "TYPE_2": "District", "ENGTYPE_2": "District", "CC_2": "NA", "HASC_2": "SO.SH.WA" }, "geometry": { "type": "Polygon", "coordinates": [ [ [ 44.659999847000165, 3.250000953000097 ], [ 44.779998780000028, 3.26999998000008 ], [ 45.06999969400016, 3.250000953000097 ], [ 45.119998932000158, 3.040000915000064 ], [ 45.339999998999986, 2.719998947000136 ], [ 44.880001069000116, 2.340001106000045 ], [ 44.65000152600004, 2.220000028000015 ], [ 44.619998932000101, 2.479999066000062 ], [ 44.659999847000165, 2.75000000100016 ], [ 44.639999390000071, 2.80999994300015 ], [ 44.689998628000069, 3.049999953000167 ], [ 44.659999847000165, 3.250000953000097 ] ] ] } },
{ "type": "Feature", "properties": { "GID_2": "SOM.16.1_1", "GID_0": "SOM", "COUNTRY": "Somalia", "GID_1": "SOM.16_1", "NAME_1": "Sool", "NL_NAME_1": "NA", "NAME_2": "Caynabo", "VARNAME_2": "Ainabo| Caynaba| Aynabo", "NL_NAME_2": "NA", "TYPE_2": "District", "ENGTYPE_2": "District", "CC_2": "NA", "HASC_2": "SO.SO.CA" }, "geometry": { "type": "Polygon", "coordinates": [ [ [ 46.009998322000172, 10.080000876999975 ], [ 46.840000153000062, 9.420001985000056 ], [ 46.909999848000155, 9.430000306000125 ], [ 46.919998169000053, 8.760001183000099 ], [ 46.150001525, 8.799999237000179 ], [ 46.189998627000023, 8.990001678000056 ], [ 46.009998322000172, 10.080000876999975 ] ] ] } },
{ "type": "Feature", "properties": { "GID_2": "SOM.16.2_1", "GID_0": "SOM", "COUNTRY": "Somalia", "GID_1": "SOM.16_1", "NAME_1": "Sool", "NL_NAME_1": "NA", "NAME_2": "Lascaanod", "VARNAME_2": "Lasanod", "NL_NAME_2": "NA", "TYPE_2": "District", "ENGTYPE_2": "District", "CC_2": "NA", "HASC_2": "SO.SO.LA" }, "geometry": { "type": "Polygon", "coordinates": [ [ [ 47.936557769000103, 8.011961938000184 ], [ 47.008838654000101, 7.98536062300019 ], [ 47.099998474000131, 8.560000421000154 ], [ 47.000000000000114, 8.750001907000183 ], [ 46.919998169000053, 8.760001183000099 ], [ 46.919998169000053, 8.819998742 ], [ 48.549999237000122, 8.760001183000099 ], [ 48.020000457000037, 8.210001944999988 ], [ 48.119998932000101, 8.189999580000119 ], [ 47.936557769000103, 8.011961938000184 ] ] ] } },
{ "type": "Feature", "properties": { "GID_2": "SOM.16.3_1", "GID_0": "SOM", "COUNTRY": "Somalia", "GID_1": "SOM.16_1", "NAME_1": "Sool", "NL_NAME_1": "NA", "NAME_2": "Taleex", "VARNAME_2": "Telex| Taleh", "NL_NAME_2": "NA", "TYPE_2": "District", "ENGTYPE_2": "District", "CC_2": "NA", "HASC_2": "SO.SO.TE" }, "geometry": { "type": "Polygon", "coordinates": [ [ [ 49.060001373000148, 9.570000649000121 ], [ 49.080001830000072, 9.140001297000083 ], [ 48.68999862700008, 8.750001907000183 ], [ 48.020000457000037, 8.770001411000067 ], [ 48.06000137400008, 9.500001908000115 ], [ 49.060001373000148, 9.570000649000121 ] ] ] } },
{ "type": "Feature", "properties": { "GID_2": "SOM.16.4_1", "GID_0": "SOM", "COUNTRY": "Somalia", "GID_1": "SOM.16_1", "NAME_1": "Sool", "NL_NAME_1": "NA", "NAME_2": "Xudun", "VARNAME_2": "Hudun", "NL_NAME_2": "NA", "TYPE_2": "District", "ENGTYPE_2": "District", "CC_2": "NA", "HASC_2": "SO.NU.XU" }, "geometry": { "type": "Polygon", "coordinates": [ [ [ 46.909999848000155, 9.430000306000125 ], [ 48.06000137400008, 9.500001908000115 ], [ 48.020000457000037, 8.770001411000067 ], [ 46.919998169000053, 8.819998742 ], [ 46.909999848000155, 9.430000306000125 ] ] ] } },
{ "type": "Feature", "properties": { "GID_2": "SOM.17.1_1", "GID_0": "SOM", "COUNTRY": "Somalia", "GID_1": "SOM.17_1", "NAME_1": "Togdheer", "NL_NAME_1": "NA", "NAME_2": "Burao", "VARNAME_2": "Burco", "NL_NAME_2": "NA", "TYPE_2": "District", "ENGTYPE_2": "District", "CC_2": "NA", "HASC_2": "SO.TO.BR" }, "geometry": { "type": "Polygon", "coordinates": [ [ [ 46.228523253999981, 8.239853859000107 ], [ 45.267814636000082, 8.562244416000055 ], [ 45.27000045800014, 9.840001106000159 ], [ 45.840000153000119, 9.75000000100016 ], [ 45.770000458000027, 9.909999848000041 ], [ 45.810001373000091, 10.029998779000096 ], [ 45.90000152500005, 10.100000382000189 ], [ 46.009998322000172, 10.080000876999975 ], [ 46.189998627000023, 8.990001678000056 ], [ 46.150001525, 8.799999237000179 ], [ 46.228523253999981, 8.239853859000107 ] ] ] } },
{ "type": "Feature", "properties": { "GID_2": "SOM.17.2_1", "GID_0": "SOM", "COUNTRY": "Somalia", "GID_1": "SOM.17_1", "NAME_1": "Togdheer", "NL_NAME_1": "NA", "NAME_2": "Buuhoodle", "VARNAME_2": "Buuhodle| Buhodle", "NL_NAME_2": "NA", "TYPE_2": "District", "ENGTYPE_2": "District", "CC_2": "NA", "HASC_2": "SO.TO.BH" }, "geometry": { "type": "Polygon", "coordinates": [ [ [ 47.008838654000101, 7.98536062300019 ], [ 46.228523253999981, 8.239853859000107 ], [ 46.150001525, 8.799999237000179 ], [ 47.000000000000114, 8.750001907000183 ], [ 47.099998474000131, 8.560000421000154 ], [ 47.008838654000101, 7.98536062300019 ] ] ] } },
{ "type": "Feature", "properties": { "GID_2": "SOM.17.3_1", "GID_0": "SOM", "COUNTRY": "Somalia", "GID_1": "SOM.17_1", "NAME_1": "Togdheer", "NL_NAME_1": "NA", "NAME_2": "Oodweyne", "VARNAME_2": "Odwenyen| Oodwayne| Odweine", "NL_NAME_2": "NA", "TYPE_2": "District", "ENGTYPE_2": "District", "CC_2": "NA", "HASC_2": "SO.TO.OD" }, "geometry": { "type": "Polygon", "coordinates": [ [ [ 45.267814636000082, 8.562244416000055 ], [ 44.689537049000137, 8.75772476100019 ], [ 44.689998628000069, 9.310002328000053 ], [ 44.830001831000118, 9.859999658000163 ], [ 44.869998932000044, 9.909999848000041 ], [ 45.27000045800014, 9.840001106000159 ], [ 45.267814636000082, 8.562244416000055 ] ] ] } },
{ "type": "Feature", "properties": { "GID_2": "SOM.17.4_1", "GID_0": "SOM", "COUNTRY": "Somalia", "GID_1": "SOM.17_1", "NAME_1": "Togdheer", "NL_NAME_1": "NA", "NAME_2": "Sheekh", "VARNAME_2": "Sheik| Sheikh", "NL_NAME_2": "NA", "TYPE_2": "District", "ENGTYPE_2": "District", "CC_2": "NA", "HASC_2": "SO.TO.SH" }, "geometry": { "type": "Polygon", "coordinates": [ [ [ 45.90000152500005, 10.100000382000189 ], [ 45.810001373000091, 10.029998779000096 ], [ 45.770000458000027, 9.909999848000041 ], [ 45.840000153000119, 9.75000000100016 ], [ 44.869998932000044, 9.909999848000041 ], [ 45.099998475000064, 10.170001029000161 ], [ 45.90000152500005, 10.100000382000189 ] ] ] } },
{ "type": "Feature", "properties": { "GID_2": "SOM.18.1_1", "GID_0": "SOM", "COUNTRY": "Somalia", "GID_1": "SOM.18_1", "NAME_1": "Woqooyi Galbeed", "NL_NAME_1": "NA", "NAME_2": "Berbera", "VARNAME_2": "NA", "NL_NAME_2": "NA", "TYPE_2": "District", "ENGTYPE_2": "District", "CC_2": "NA", "HASC_2": "SO.WO.BE" }, "geometry": { "type": "Polygon", "coordinates": [ [ [ 44.139999390000185, 10.289999962000081 ], [ 44.23513793900014, 10.472639083000104 ], [ 44.317081450999979, 10.417084695000028 ], [ 44.413749695000149, 10.389861107000172 ], [ 44.448749543000019, 10.400695801999973 ], [ 44.591526031000114, 10.378749848000155 ], [ 44.748195647000045, 10.418194772000163 ], [ 44.945972443000187, 10.408472061000111 ], [ 45.003471374000185, 10.434583665 ], [ 45.003192901000148, 10.452361108 ], [ 44.982082367000146, 10.440972329000147 ], [ 44.979583740000066, 10.444305420000148 ], [ 45.053749085, 10.476529121000112 ], [ 45.085971833000031, 10.507638931000031 ], [ 45.229305267000143, 10.556804657000157 ], [ 45.324028015000067, 10.662361146000023 ], [ 45.46569442700013, 10.665695190000065 ], [ 45.57402801500001, 10.722360612000045 ], [ 45.594028473000037, 10.76208210100009 ], [ 45.672084808000022, 10.782917977000125 ], [ 45.753471374000185, 10.829583169000102 ], [ 45.776527404000035, 10.860415458999967 ], [ 45.805137635000165, 10.868749619000141 ], [ 45.859584809000125, 10.816528320000032 ], [ 45.878192901000034, 10.814862252000069 ], [ 45.862640382000109, 10.823472977999984 ], [ 45.873470307000105, 10.834584236000069 ], [ 45.974582672000167, 10.778749467000182 ], [ 46.036178589000144, 10.770973205000132 ], [ 46.009998322000172, 10.080000876999975 ], [ 45.099998475000064, 10.170001029000161 ], [ 44.869998932000044, 9.909999848000041 ], [ 44.72999954200003, 9.920001030000094 ], [ 44.139999390000185, 10.289999962000081 ] ] ] } },
{ "type": "Feature", "properties": { "GID_2": "SOM.18.2_1", "GID_0": "SOM", "COUNTRY": "Somalia", "GID_1": "SOM.18_1", "NAME_1": "Woqooyi Galbeed", "NL_NAME_1": "NA", "NAME_2": "Gabiley", "VARNAME_2": "Gebiley", "NL_NAME_2": "NA", "TYPE_2": "District", "ENGTYPE_2": "District", "CC_2": "NA", "HASC_2": "SO.WO.GE" }, "geometry": { "type": "Polygon", "coordinates": [ [ [ 43.415462494000053, 9.476858139000171 ], [ 43.405426026000043, 9.510837556000126 ], [ 43.30158615, 9.651344300000176 ], [ 43.759998321000182, 10.279998779000096 ], [ 44.040000915000064, 10.149999619000084 ], [ 44.099998473000085, 10.100000382000189 ], [ 43.581901551000158, 9.377635957000109 ], [ 43.534294128000056, 9.405537605000177 ], [ 43.49683380200014, 9.408078194000154 ], [ 43.482482910000101, 9.435317993000012 ], [ 43.415462494000053, 9.476858139000171 ] ] ] } },
{ "type": "Feature", "properties": { "GID_2": "SOM.18.3_1", "GID_0": "SOM", "COUNTRY": "Somalia", "GID_1": "SOM.18_1", "NAME_1": "Woqooyi Galbeed", "NL_NAME_1": "NA", "NAME_2": "Hargeysa", "VARNAME_2": "Hargeisa", "NL_NAME_2": "NA", "TYPE_2": "District", "ENGTYPE_2": "District", "CC_2": "NA", "HASC_2": "SO.WO.HA" }, "geometry": { "type": "Polygon", "coordinates": [ [ [ 43.97551345800008, 9.036986351999985 ], [ 43.958503723000035, 9.064987184000074 ], [ 43.761054993000187, 9.231266976000086 ], [ 43.68224334700011, 9.279087067000148 ], [ 43.581901551000158, 9.377635957000109 ], [ 44.099998473000085, 10.100000382000189 ], [ 44.040000915000064, 10.149999619000084 ], [ 44.139999390000185, 10.289999962000081 ], [ 44.72999954200003, 9.920001030000094 ], [ 44.869998932000044, 9.909999848000041 ], [ 44.830001831000118, 9.859999658000163 ], [ 44.689998628000069, 9.310002328000053 ], [ 44.689537049000137, 8.75772476100019 ], [ 44.156364442000097, 8.937956809000127 ], [ 43.97551345800008, 9.036986351999985 ] ] ] } }
]
}
