{
"type": "FeatureCollection",
"name": "gadm41_SOM_1",
"crs": { "type": "name", "properties": { "name": "urn:ogc:def:crs:OGC:1.3:CRS84" } },
"features": [
{ "type": "Feature", "properties": { "GID_1": "SOM.1_1", "GID_0": "SOM", "COUNTRY": "Somalia", "NAME_1": "Awdal", "VARNAME_1": "Adal | Adel", "NL_NAME_1": "NA", "TYPE_1": "Gobolka", "ENGTYPE_1": "Region", "CC_1": "NA", "HASC_1": "SO.AW", "ISO_1": "SO-AW" }, "geometry": { "type": "MultiPolygon", "coordinates": [ [ [ [ 43.30158615, 9.651344300000176 ], [ 43.249614715000178, 9.791037559000131 ], [ 43.251365662000183, 9.828227997000113 ], [ 43.199733735, 9.880417824000062 ], [ 43.098255157000096, 9.921418191000043 ], [ 43.062965394000116, 9.996518135000144 ], [ 42.856033325000169, 10.225568771000098 ], [ 42.804515946000038, 10.314758127000175 ], [ 42.704685212000072, 10.574638368000024 ], [ 42.721596, 10.660548000000119 ], [ 42.796535492000032, 10.791977882000026 ], [ 42.96163919300011, 10.984410298000114 ], [ 43.258129, 11.46097200000014 ], [ 43.291805, 11.468195 ], [ 43.312084000000141, 11.464860000000101 ], [ 43.331528000000105, 11.424306 ], [ 43.349030000000141, 11.432916 ], [ 43.372082, 11.394027000000108 ], [ 43.425140000000169, 11.379306000000156 ], [ 43.452084000000184, 11.350694000000146 ], [ 43.459862000000157, 11.348472000000129 ], [ 43.470695000000148, 11.350138000000129 ], [ 43.469028, 11.35930500000012 ], [ 43.480972000000122, 11.352360000000147 ], [ 43.490417, 11.367083 ], [ 43.4812510000001, 11.361251 ], [ 43.479584, 11.362639000000115 ], [ 43.469860000000153, 11.360417 ], [ 43.468472, 11.360973000000115 ], [ 43.48875, 11.368749 ], [ 43.505138000000159, 11.36847100000017 ], [ 43.47874800000011, 11.330973 ], [ 43.497082, 11.212084000000175 ], [ 43.524307, 11.183472000000165 ], [ 43.555695000000128, 11.176249 ], [ 43.652637, 10.986805000000174 ], [ 43.893196105000129, 10.731528282000056 ], [ 44.23513793900014, 10.472639083000104 ], [ 44.139999390000185, 10.289999962000081 ], [ 44.040000915000064, 10.149999619000084 ], [ 43.759998321000182, 10.279998779000096 ], [ 43.30158615, 9.651344300000176 ] ] ], [ [ [ 43.25642, 11.461528000000101 ], [ 43.257362000000171, 11.461528000000101 ], [ 43.257355000000132, 11.461225000000127 ], [ 43.25642, 11.461528000000101 ] ] ], [ [ [ 43.255974, 11.461806 ], [ 43.255727, 11.461754 ], [ 43.255566000000101, 11.461806 ], [ 43.255974, 11.461806 ] ] ], [ [ [ 43.254845000000103, 11.46204 ], [ 43.255417000000193, 11.462082000000123 ], [ 43.255417000000193, 11.461854 ], [ 43.254845000000103, 11.46204 ] ] ], [ [ [ 43.251476, 11.463136000000134 ], [ 43.25264, 11.462916 ], [ 43.254845000000103, 11.46204 ], [ 43.251476, 11.463136000000134 ] ] ], [ [ [ 43.360973000000115, 11.465417 ], [ 43.364582000000155, 11.462082000000123 ], [ 43.359306, 11.463472 ], [ 43.360973000000115, 11.465417 ] ] ], [ [ [ 43.285694000000149, 11.488194 ], [ 43.294029000000194, 11.485972 ], [ 43.280972, 11.484862 ], [ 43.285694000000149, 11.488194 ] ] ], [ [ [ 43.464305999000089, 11.350138001000062 ], [ 43.467640000000131, 11.352916000000107 ], [ 43.467640000000131, 11.352084 ], [ 43.464305999000089, 11.350138001000062 ] ] ], [ [ [ 43.49541900000014, 11.375416000000143 ], [ 43.505974, 11.374584 ], [ 43.493473000000108, 11.37264000000016 ], [ 43.49541900000014, 11.375416000000143 ] ] ], [ [ [ 43.451527000000112, 11.432916 ], [ 43.4468040000001, 11.432916 ], [ 43.4468040000001, 11.434304 ], [ 43.451527000000112, 11.432916 ] ] ], [ [ [ 43.368752, 11.434028000000126 ], [ 43.37125, 11.435694000000126 ], [ 43.37875, 11.442639 ], [ 43.381248, 11.435694000000126 ], [ 43.368752, 11.434028000000126 ] ] ], [ [ [ 43.332916000000182, 11.448471000000154 ], [ 43.335415000000182, 11.444305 ], [ 43.334305, 11.443751 ], [ 43.332916000000182, 11.448471000000154 ] ] ], [ [ [ 43.257915000000139, 11.461041 ], [ 43.257355000000132, 11.461225000000127 ], [ 43.257915000000139, 11.46125 ], [ 43.257915000000139, 11.461041 ] ] ], [ [ [ 43.451248000000135, 11.43375 ], [ 43.459862000000157, 11.449583000000132 ], [ 43.47514, 11.445139000000154 ], [ 43.464863, 11.416527000000144 ], [ 43.453751, 11.418473 ], [ 43.454582, 11.430418 ], [ 43.451527000000112, 11.432916 ], [ 43.451248000000135, 11.43375 ] ] ], [ [ [ 43.453194000000167, 11.502639000000102 ], [ 43.468472, 11.51125 ], [ 43.449028000000112, 11.489582000000155 ], [ 43.453194000000167, 11.502639000000102 ] ] ] ] } },
{ "type": "Feature", "properties": { "GID_1": "SOM.2_1", "GID_0": "SOM", "COUNTRY": "Somalia", "NAME_1": "Bakool", "VARNAME_1": "NA", "NL_NAME_1": "NA", "TYPE_1": "Gobolka", "ENGTYPE_1": "Region", "CC_1": "NA", "HASC_1": "SO.BK", "ISO_1": "NA" }, "geometry": { "type": "Polygon", "coordinates": [ [ [ 43.680000305000192, 3.720000029000175 ], [ 43.580001831000175, 3.609998942000061 ], [ 43.409999848000155, 3.570000888000152 ], [ 43.119998931000111, 3.670000076000065 ], [ 43.139999389000081, 3.849998951000146 ], [ 42.882766724000078, 4.305806160000088 ], [ 42.82509994500009, 4.267076970000119 ], [ 42.772689819000107, 4.264673710000068 ], [ 42.947967530000028, 4.395154477 ], [ 43.03303909400006, 4.55456447600011 ], [ 43.162590027000192, 4.658194065000089 ], [ 43.397472381, 4.784063816000071 ], [ 43.806262969000102, 4.898762703000045 ], [ 44.02896118200016, 4.939652444000103 ], [ 44.589881896000065, 4.921791554000038 ], [ 44.680000304000032, 4.410000802000127 ], [ 44.799999237000122, 3.859999895000044 ], [ 44.770000457000151, 3.70000004700006 ], [ 44.779998780000028, 3.26999998000008 ], [ 44.659999847000165, 3.250000953000097 ], [ 44.610000611000146, 3.26999998000008 ], [ 44.409999847000051, 3.259999037000114 ], [ 44.279998780000142, 3.339998960000173 ], [ 44.310001374000137, 3.390001059000156 ], [ 44.310001374000137, 3.570000888000152 ], [ 44.180000305000078, 3.849998951000146 ], [ 43.950000762, 3.92000103100014 ], [ 43.880001069000116, 3.92000103100014 ], [ 43.75, 3.849998951000146 ], [ 43.680000305000192, 3.720000029000175 ] ] ] } },
{ "type": "Feature", "properties": { "GID_1": "SOM.3_1", "GID_0": "SOM", "COUNTRY": "Somalia", "NAME_1": "Banaadir", "VARNAME_1": "Benadir", "NL_NAME_1": "NA", "TYPE_1": "Gobolka", "ENGTYPE_1": "Region", "CC_1": "NA", "HASC_1": "SO.BN", "ISO_1": "SO-BN" }, "geometry": { "type": "Polygon", "coordinates": [ [ [ 45.603473663000102, 2.18304395600012 ], [ 45.392639160000044, 2.052083015000051 ], [ 45.26647568900006, 1.988472000000115 ], [ 45.389999389000195, 2.150001050000128 ], [ 45.603473663000102, 2.18304395600012 ] ] ] } },
{ "type": "Feature", "properties": { "GID_1": "SOM.4_1", "GID_0": "SOM", "COUNTRY": "Somalia", "NAME_1": "Bari", "VARNAME_1": "NA", "NL_NAME_1": "NA", "TYPE_1": "Gobolka", "ENGTYPE_1": "Region", "CC_1": "NA", "HASC_1": "SO.BR", "ISO_1": "SO-BR" }, "geometry": { "type": "MultiPolygon", "coordinates": [ [ [ [ 49.930000305000192, 8.460000038000089 ], [ 49.840000153000176, 8.330000878000078 ], [ 49.779998779000039, 8.529998780000142 ], [ 49.680000305000021, 8.580000878000021 ], [ 49.450000763000105, 8.590000154000109 ], [ 49.180000306000068, 8.770001411000067 ], [ 49.110000611000146, 8.899998665000055 ], [ 49.080001830000072, 9.140001297000083 ], [ 49.060001373000148, 9.570000649000121 ], [ 49.029998778999982, 10.780000686000051 ], [ 48.91477203300019, 11.239595414000064 ], [ 48.879604340000128, 11.246535302000154 ], [ 48.869583130000194, 11.251528741000072 ], [ 48.955139159000055, 11.240415573000178 ], [ 49.031806946000131, 11.258749009000098 ], [ 49.034027100000174, 11.252082825000059 ], [ 49.040416718000188, 11.247637748999978 ], [ 49.034862518000182, 11.259305001000087 ], [ 49.062084198000093, 11.267915727 ], [ 49.259582520000095, 11.305694580000079 ], [ 49.302360535000105, 11.337082863000035 ], [ 49.421527863000051, 11.335970878000126 ], [ 49.50847244300013, 11.38180732800015 ], [ 49.555137634000062, 11.449027061000095 ], [ 49.653472900000111, 11.459584236000069 ], [ 49.683193207000102, 11.479027749000068 ], [ 49.753749847000165, 11.458749771000043 ], [ 49.827640534000125, 11.46014022900016 ], [ 49.91791534400005, 11.504304886000114 ], [ 49.942359924000073, 11.48347187000013 ], [ 49.92514038000013, 11.505137442999967 ], [ 49.946250915000064, 11.515693665000128 ], [ 50.071250916, 11.505417823000073 ], [ 50.15124893300009, 11.55180454200007 ], [ 50.26402664200009, 11.584583283000143 ], [ 50.297916413000053, 11.615694046000044 ], [ 50.444583893000015, 11.681804656000111 ], [ 50.509582519000105, 11.757081986000173 ], [ 50.569026947000054, 11.902916908000179 ], [ 50.630138398000099, 11.943471908000163 ], [ 50.678195953000113, 11.935695648000149 ], [ 50.786529542000096, 11.980138779000072 ], [ 50.763195038000106, 11.973471641000174 ], [ 50.774028778000172, 11.988471031000074 ], [ 50.802082063000057, 11.98458290200017 ], [ 50.817638397, 11.972082138000189 ], [ 50.806804657000157, 11.961249351000163 ], [ 50.821250916000054, 11.969860077000135 ], [ 50.845695496000019, 11.940416337000045 ], [ 50.975139617000195, 11.919859886000097 ], [ 51.057918549000078, 11.871805192000068 ], [ 51.143470765000075, 11.873194695000052 ], [ 51.238471984000057, 11.834859848000121 ], [ 51.279026032000161, 11.841251373000091 ], [ 51.285694122000166, 11.809027673000173 ], [ 51.247081758000149, 11.716251372999977 ], [ 51.256805421000081, 11.679029466000031 ], [ 51.124584000000141, 11.500417000000141 ], [ 51.125973000000158, 11.444583 ], [ 51.081528000000162, 11.317918000000191 ], [ 51.086807000000135, 11.196526 ], [ 51.110695, 11.160694 ], [ 51.159863, 11.151527 ], [ 51.118752, 11.154027000000156 ], [ 51.107082000000105, 11.16125 ], [ 51.10374800000011, 11.159862 ], [ 51.139862, 11.138194000000169 ], [ 51.175694, 11.154584 ], [ 51.183472, 11.144305 ], [ 51.133194, 11.034582000000171 ], [ 51.119583, 10.931529 ], [ 51.130974, 10.68569500000018 ], [ 51.170696, 10.571250000000134 ], [ 51.109028000000194, 10.553195000000187 ], [ 51.105415, 10.529305 ], [ 51.075138, 10.516250000000127 ], [ 51.079304, 10.494863000000123 ], [ 51.032917000000111, 10.46097200000014 ], [ 51.022083, 10.433194 ], [ 51.03764, 10.404862 ], [ 51.110138000000177, 10.428193000000135 ], [ 51.234859, 10.432360000000131 ], [ 51.197083000000191, 10.479861 ], [ 51.20458200000013, 10.51236200000011 ], [ 51.200138000000152, 10.516250000000127 ], [ 51.201527000000169, 10.524305 ], [ 51.193474000000151, 10.533471000000191 ], [ 51.194862, 10.534305 ], [ 51.295418, 10.478749 ], [ 51.392639, 10.478195 ], [ 51.415695, 10.444583 ], [ 51.406528, 10.415417000000161 ], [ 51.374863000000119, 10.382638000000156 ], [ 51.375137, 10.363195000000132 ], [ 51.340694, 10.377640000000156 ], [ 51.271805, 10.374584 ], [ 51.27208300000018, 10.413194 ], [ 51.247917000000143, 10.424305000000174 ], [ 51.112362000000189, 10.411528 ], [ 51.024307000000192, 10.387363000000107 ], [ 50.90097, 10.315973 ], [ 50.903194, 10.175973 ], [ 50.885693000000117, 10.095695 ], [ 50.902084, 9.995417 ], [ 50.870414735000111, 9.881251336000105 ], [ 50.845695496000019, 9.85875129700014 ], [ 50.825138091000042, 9.653750420000108 ], [ 50.802639007000096, 9.585139275000188 ], [ 50.802360534000059, 9.518750192000027 ], [ 50.847084043999985, 9.468471528 ], [ 50.828193664000025, 9.417360306000035 ], [ 50.748195648000035, 9.294860841 ], [ 50.706249237000065, 9.271805763000032 ], [ 50.659305573000154, 9.212361334999969 ], [ 50.635971069000163, 9.07046222800011 ], [ 50.446250916000054, 8.898750305000021 ], [ 50.419860840000183, 8.854860305000102 ], [ 50.38541793800016, 8.703748704000077 ], [ 50.332084657000109, 8.627915383000129 ], [ 50.322639464000133, 8.526805878000118 ], [ 50.23847198500016, 8.434861184000169 ], [ 50.183750153000062, 8.332362176000061 ], [ 50.172367095000027, 8.327634812000042 ], [ 50.049999236000076, 8.439997673 ], [ 49.930000305000192, 8.460000038000089 ] ] ], [ [ [ 51.183193000000188, 10.559583001000021 ], [ 51.19069300100017, 10.542083999000056 ], [ 51.191250000000196, 10.537084001000039 ], [ 51.18819400100017, 10.540416000000164 ], [ 51.183193000000188, 10.559583001000021 ] ] ] ] } },
{ "type": "Feature", "properties": { "GID_1": "SOM.5_1", "GID_0": "SOM", "COUNTRY": "Somalia", "NAME_1": "Bay", "VARNAME_1": "Baay", "NL_NAME_1": "NA", "TYPE_1": "Gobolka", "ENGTYPE_1": "Region", "CC_1": "NA", "HASC_1": "SO.BY", "ISO_1": "NA" }, "geometry": { "type": "Polygon", "coordinates": [ [ [ 44.409999847000051, 3.259999037000114 ], [ 44.610000611000146, 3.26999998000008 ], [ 44.659999847000165, 3.250000953000097 ], [ 44.689998628000069, 3.049999953000167 ], [ 44.639999390000071, 2.80999994300015 ], [ 44.659999847000165, 2.75000000100016 ], [ 44.619998932000101, 2.479999066000062 ], [ 44.65000152600004, 2.220000028000015 ], [ 43.580001831000175, 1.75999999000004 ], [ 42.979999543000133, 1.460000038000032 ], [ 42.52000045800014, 1.880000949000134 ], [ 42.40000152500005, 1.950000048000163 ], [ 42.599998474000131, 3.069998981000026 ], [ 42.930000305000135, 3.040000915000064 ], [ 43.099998474000017, 3.06000089700018 ], [ 43.119998931000111, 3.670000076000065 ], [ 43.409999848000155, 3.570000888000152 ], [ 43.580001831000175, 3.609998942000061 ], [ 43.680000305000192, 3.720000029000175 ], [ 43.75, 3.849998951000146 ], [ 43.880001069000116, 3.92000103100014 ], [ 43.950000762, 3.92000103100014 ], [ 44.180000305000078, 3.849998951000146 ], [ 44.310001374000137, 3.570000888000152 ], [ 44.310001374000137, 3.390001059000156 ], [ 44.279998780000142, 3.339998960000173 ], [ 44.409999847000051, 3.259999037000114 ] ] ] } },
{ "type": "Feature", "properties": { "GID_1": "SOM.6_1", "GID_0": "SOM", "COUNTRY": "Somalia", "NAME_1": "Galguduud", "VARNAME_1": "Galgudug", "NL_NAME_1": "NA", "TYPE_1": "Gobolka", "ENGTYPE_1": "Region", "CC_1": "NA", "HASC_1": "SO.GA", "ISO_1": "NA" }, "geometry": { "type": "Polygon", "coordinates": [ [ [ 47.834861756000066, 4.343194962000098 ], [ 47.47680664100011, 3.924861909000185 ], [ 47.035694123000042, 3.471806049000122 ], [ 46.389999389000195, 3.890000105000126 ], [ 46.400001525000164, 4.230000020000148 ], [ 46.150001525, 4.430000782000093 ], [ 46.1100006100001, 4.7399997710001 ], [ 46.209999084000117, 4.940000058000123 ], [ 46.229999541000041, 5.080000878000021 ], [ 46.040000915000064, 5.030001163000065 ], [ 45.70999908400006, 5.110001087000057 ], [ 45.533222198000146, 5.482010366000168 ], [ 46.53020477300015, 6.519646644000034 ], [ 47.599998473000142, 6.280000209000093 ], [ 47.349998474000074, 5.750000954000086 ], [ 47.470001221000132, 5.569999219000067 ], [ 47.610000609999986, 5.190001010000117 ], [ 47.5, 4.489998818000174 ], [ 47.834861756000066, 4.343194962000098 ] ] ] } },
{ "type": "Feature", "properties": { "GID_1": "SOM.7_1", "GID_0": "SOM", "COUNTRY": "Somalia", "NAME_1": "Gedo", "VARNAME_1": "Gado", "NL_NAME_1": "NA", "TYPE_1": "Gobolka", "ENGTYPE_1": "Region", "CC_1": "NA", "HASC_1": "SO.GE", "ISO_1": "SO-GE" }, "geometry": { "type": "Polygon", "coordinates": [ [ [ 40.990688323000143, 1.230770946000064 ], [ 40.986560822000115, 2.819380999000089 ], [ 41.328128815000184, 3.158634902000188 ], [ 41.93801498400012, 4.01874589900018 ], [ 41.982486726000161, 4.049065589000065 ], [ 42.013744355000142, 4.09783601700002 ], [ 42.078174591999982, 4.131235600000139 ], [ 42.203907014000094, 4.161425592000114 ], [ 42.396156310000151, 4.163315296000178 ], [ 42.545898437, 4.186365128000034 ], [ 42.714828490000173, 4.232234955000081 ], [ 42.772689819000107, 4.264673710000068 ], [ 42.82509994500009, 4.267076970000119 ], [ 42.882766724000078, 4.305806160000088 ], [ 43.139999389000081, 3.849998951000146 ], [ 43.119998931000111, 3.670000076000065 ], [ 43.099998474000017, 3.06000089700018 ], [ 42.930000305000135, 3.040000915000064 ], [ 42.599998474000131, 3.069998981000026 ], [ 42.40000152500005, 1.950000048000163 ], [ 41.640033721000066, 1.940000057000077 ], [ 41.420108796000136, 1.26000797800009 ], [ 40.990688323000143, 1.230770946000064 ] ] ] } },
{ "type": "Feature", "properties": { "GID_1": "SOM.8_1", "GID_0": "SOM", "COUNTRY": "Somalia", "NAME_1": "Hiiraan", "VARNAME_1": "Hiiran", "NL_NAME_1": "NA", "TYPE_1": "Gobolka", "ENGTYPE_1": "Region", "CC_1": "NA", "HASC_1": "SO.HI", "ISO_1": "SO-HI" }, "geometry": { "type": "Polygon", "coordinates": [ [ [ 46.389999389000195, 3.890000105000126 ], [ 46.029998779000096, 3.520000935000041 ], [ 45.93999862700008, 3.250000953000097 ], [ 45.27000045800014, 3.200001002000135 ], [ 45.150001526000153, 3.210000039000136 ], [ 45.06999969400016, 3.250000953000097 ], [ 44.779998780000028, 3.26999998000008 ], [ 44.770000457000151, 3.70000004700006 ], [ 44.799999237000122, 3.859999895000044 ], [ 44.680000304000032, 4.410000802000127 ], [ 44.589881896000065, 4.921791554000038 ], [ 44.903175354000041, 4.912710667000169 ], [ 45.001667022000106, 4.932207108000114 ], [ 45.533222198000146, 5.482010366000168 ], [ 45.70999908400006, 5.110001087000057 ], [ 46.040000915000064, 5.030001163000065 ], [ 46.229999541000041, 5.080000878000021 ], [ 46.209999084000117, 4.940000058000123 ], [ 46.1100006100001, 4.7399997710001 ], [ 46.150001525, 4.430000782000093 ], [ 46.400001525000164, 4.230000020000148 ], [ 46.389999389000195, 3.890000105000126 ] ] ] } },
{ "type": "Feature", "properties": { "GID_1": "SOM.9_1", "GID_0": "SOM", "COUNTRY": "Somalia", "NAME_1": "Jubbada Dhexe", "VARNAME_1": "J. Dhexe| Central Juba| Middle J", "NL_NAME_1": "NA", "TYPE_1": "Gobolka", "ENGTYPE_1": "Region", "CC_1": "NA", "HASC_1": "SO.JD", "ISO_1": "NA" }, "geometry": { "type": "Polygon", "coordinates": [ [ [ 42.979999543000133, 1.460000038000032 ], [ 43.518470763000096, 0.675719024000045 ], [ 43.185417174000179, 0.32152798900006 ], [ 42.729999540999984, 0.310000003000141 ], [ 42.630001068000126, 0.720000982000045 ], [ 42.430000306000125, 1.319998980000094 ], [ 41.420108796000136, 1.26000797800009 ], [ 41.640033721000066, 1.940000057000077 ], [ 42.40000152500005, 1.950000048000163 ], [ 42.52000045800014, 1.880000949000134 ], [ 42.979999543000133, 1.460000038000032 ] ] ] } },
{ "type": "Feature", "properties": { "GID_1": "SOM.10_1", "GID_0": "SOM", "COUNTRY": "Somalia", "NAME_1": "Jubbada Hoose", "VARNAME_1": "J. Hoose| Lower Juba", "NL_NAME_1": "NA", "TYPE_1": "Gobolka", "ENGTYPE_1": "Region", "CC_1": "NA", "HASC_1": "SO.JH", "ISO_1": "SO-JH" }, "geometry": { "type": "MultiPolygon", "coordinates": [ [ [ [ 41.610973000000115, -1.61014 ], [ 41.613472000000115, -1.61264 ], [ 41.609585, -1.613471998999955 ], [ 41.610973000000115, -1.61014 ] ] ], [ [ [ 41.629581, -1.585972 ], [ 41.62875, -1.589862 ], [ 41.627918, -1.589583999999832 ], [ 41.629581, -1.585972 ] ] ], [ [ [ 41.639584, -1.561527999999896 ], [ 41.638748000000135, -1.564584 ], [ 41.63791700000013, -1.564305999999874 ], [ 41.639584, -1.561527999999896 ] ] ], [ [ [ 41.758194, -1.381251 ], [ 41.755417000000136, -1.382083 ], [ 41.757637000000159, -1.379582 ], [ 41.758194, -1.381251 ] ] ], [ [ [ 41.77597, -1.360417 ], [ 41.774582000000123, -1.359027 ], [ 41.776249000000178, -1.358195 ], [ 41.77597, -1.360417 ] ] ], [ [ [ 41.787640000000124, -1.34125 ], [ 41.788193, -1.344028 ], [ 41.784027000000151, -1.347361999999862 ], [ 41.787640000000124, -1.34125 ] ] ], [ [ [ 41.914028000000144, -1.182362 ], [ 41.91264, -1.185694 ], [ 41.911804000000132, -1.185416 ], [ 41.914028000000144, -1.182362 ] ] ], [ [ [ 41.94236, -1.143194999999878 ], [ 41.919861000000139, -1.169861 ], [ 41.915417000000105, -1.179027 ], [ 41.918442000000141, -1.154547 ], [ 41.930973000000108, -1.15625 ], [ 41.94236, -1.143194999999878 ] ] ], [ [ [ 42.001526000000183, -1.068472999999869 ], [ 42.001804000000106, -1.065694999999891 ], [ 42.00264, -1.065694999999891 ], [ 42.001526000000183, -1.068472999999869 ] ] ], [ [ [ 42.003193000000124, -1.054584 ], [ 42.004028000000119, -1.05736 ], [ 42.003193000000124, -1.057916 ], [ 42.003193000000124, -1.054584 ] ] ], [ [ [ 42.007362, -1.05125 ], [ 42.007084000000191, -1.047916 ], [ 42.007915, -1.047916 ], [ 42.007362, -1.05125 ] ] ], [ [ [ 42.024306999000146, -1.028749999999889 ], [ 42.022914999000079, -1.036527 ], [ 42.018749, -1.040971 ], [ 42.017918001000169, -1.032081998999899 ], [ 42.024306999000146, -1.028749999999889 ] ] ], [ [ [ 42.054306, -0.989304999999888 ], [ 42.048752, -1.006805 ], [ 42.025696, -1.034582999999884 ], [ 42.03236, -0.999584 ], [ 42.054306, -0.989304999999888 ] ] ], [ [ [ 42.062084, -0.981251 ], [ 42.064304, -0.97625 ], [ 42.064861000000121, -0.97625 ], [ 42.062084, -0.981251 ] ] ], [ [ [ 42.081528000000162, -0.975972 ], [ 42.07958200000013, -0.97375 ], [ 42.08458300000018, -0.970972 ], [ 42.081528000000162, -0.975972 ] ] ], [ [ [ 42.104862000000139, -0.943193999999835 ], [ 42.102917000000105, -0.950694999999882 ], [ 42.099583000000166, -0.952360999999883 ], [ 42.104862000000139, -0.943193999999835 ] ] ], [ [ [ 42.117363, -0.919028 ], [ 42.119862, -0.921249999999873 ], [ 42.115971, -0.925416999999868 ], [ 42.117363, -0.919028 ] ] ], [ [ [ 42.202641000000142, -0.826805 ], [ 42.141529000000105, -0.899305 ], [ 42.128193000000181, -0.905973 ], [ 42.170139000000177, -0.848473 ], [ 42.202641000000142, -0.826805 ] ] ], [ [ [ 42.225693, -0.799027 ], [ 42.214027, -0.815973 ], [ 42.205418, -0.82208299999985 ], [ 42.225693, -0.799027 ] ] ], [ [ [ 42.235416, -0.785971999999845 ], [ 42.238194000000192, -0.784584 ], [ 42.23263900000012, -0.793472999999892 ], [ 42.235416, -0.785971999999845 ] ] ], [ [ [ 42.254860000000122, -0.76402899999988 ], [ 42.252083, -0.770694999999876 ], [ 42.246529, -0.769860999999878 ], [ 42.254860000000122, -0.76402899999988 ] ] ], [ [ [ 42.259861, -0.74764 ], [ 42.255695000000117, -0.750972 ], [ 42.254028, -0.754584 ], [ 42.256798, -0.748462 ], [ 42.259861, -0.74764 ] ] ], [ [ [ 42.30875, -0.702084 ], [ 42.268196000000103, -0.74764 ], [ 42.262638, -0.750693999999839 ], [ 42.278194, -0.725971999999899 ], [ 42.30875, -0.702084 ] ] ], [ [ [ 42.309860000000185, -0.697362 ], [ 42.310696, -0.699305999999865 ], [ 42.309860000000185, -0.699862 ], [ 42.309860000000185, -0.697362 ] ] ], [ [ [ 42.313751, -0.695693 ], [ 42.31625, -0.690417 ], [ 42.319027000000176, -0.688749 ], [ 42.313751, -0.695693 ] ] ], [ [ [ 42.351250000000164, -0.624584 ], [ 42.337082000000123, -0.657639 ], [ 42.325974000000144, -0.663473 ], [ 42.322639, -0.642917999999895 ], [ 42.351250000000164, -0.624584 ] ] ], [ [ [ 42.360416, -0.604583 ], [ 42.354027, -0.611248999999816 ], [ 42.352917000000105, -0.610970999999893 ], [ 42.360416, -0.604583 ] ] ], [ [ [ 42.364029, -0.603750999999818 ], [ 42.36375, -0.606527 ], [ 42.36264, -0.606527 ], [ 42.364029, -0.603750999999818 ] ] ], [ [ [ 42.378471, -0.590972 ], [ 42.380974, -0.583749 ], [ 42.385139, -0.580417 ], [ 42.378471, -0.590972 ] ] ], [ [ [ 42.40236300000015, -0.561527999999896 ], [ 42.39986000000016, -0.565693999999894 ], [ 42.39485900000011, -0.568193999999892 ], [ 42.399029000000155, -0.562361999999894 ], [ 42.40236300000015, -0.561527999999896 ] ] ], [ [ [ 42.405693000000156, -0.557083 ], [ 42.404305, -0.561806 ], [ 42.403473000000133, -0.561806 ], [ 42.405693000000156, -0.557083 ] ] ], [ [ [ 42.402637, -0.555139 ], [ 42.406528000000151, -0.555973 ], [ 42.401806, -0.557917 ], [ 42.402637, -0.555139 ] ] ], [ [ [ 42.093472, -0.944584 ], [ 42.094860000000153, -0.941806 ], [ 42.095974000000126, -0.941527999999835 ], [ 42.093472, -0.944584 ] ] ], [ [ [ 42.088196000000153, -0.924304 ], [ 42.087639, -0.927361 ], [ 42.08625, -0.927082999999868 ], [ 42.088196000000153, -0.924304 ] ] ], [ [ [ 42.098194000000149, -0.916249999999877 ], [ 42.097916, -0.918749999999875 ], [ 42.096806, -0.918749999999875 ], [ 42.098194000000149, -0.916249999999877 ] ] ], [ [ [ 43.179584503000171, 0.316294998000046 ], [ 42.58986300000015, -0.298194 ], [ 42.555695000000128, -0.356806 ], [ 42.557362, -0.380971999999815 ], [ 42.544861, -0.389583 ], [ 42.54124800000011, -0.387639 ], [ 42.55541600000015, -0.377639999999815 ], [ 42.544861, -0.366249 ], [ 42.521805, -0.375416 ], [ 42.474583000000166, -0.433472 ], [ 42.477085, -0.465416 ], [ 42.457916000000125, -0.455416 ], [ 42.36264, -0.561806 ], [ 42.178196000000128, -0.809584 ], [ 42.108749, -0.844582999999886 ], [ 42.083195000000103, -0.900139 ], [ 42.029839000000152, -0.958462 ], [ 42.035694, -0.975694 ], [ 41.988472000000115, -1.010973 ], [ 41.928749, -1.129028 ], [ 41.933472000000108, -1.145139 ], [ 41.906807, -1.161806 ], [ 41.875694, -1.204027 ], [ 41.888474, -1.208472 ], [ 41.901527000000158, -1.19236 ], [ 41.906250000000171, -1.192637999999874 ], [ 41.87125, -1.228473 ], [ 41.869305, -1.217915999999889 ], [ 41.839584000000116, -1.223750999999879 ], [ 41.784027000000151, -1.342362 ], [ 41.749584000000141, -1.376528 ], [ 41.59486, -1.60958399999987 ], [ 41.594307000000128, -1.63986199999988 ], [ 41.575416566000172, -1.642361998999888 ], [ 41.577358, -1.584806999999898 ], [ 41.004299000000174, -0.823577999999827 ], [ 41.000514984000063, 0.000001000000168 ], [ 40.988632202000076, 0.014013000999967 ], [ 40.994709014000193, 1.23104500900007 ], [ 42.430000306000125, 1.319998980000094 ], [ 42.630001068000126, 0.720000982000045 ], [ 42.729999540999984, 0.310000003000141 ], [ 43.179584503000171, 0.316294998000046 ] ] ], [ [ [ 41.943748000000141, -1.146526999999878 ], [ 41.946529, -1.141805 ], [ 41.949028, -1.140417 ], [ 41.943748000000141, -1.146526999999878 ] ] ], [ [ [ 41.983471, -1.077084 ], [ 41.993752, -1.085695 ], [ 41.974030000000141, -1.096249 ], [ 41.983471, -1.077084 ] ] ], [ [ [ 42.414028, -0.548751 ], [ 42.416248, -0.548195 ], [ 42.413750000000107, -0.550973 ], [ 42.414028, -0.548751 ] ] ], [ [ [ 42.441250000000139, -0.540138 ], [ 42.443474000000151, -0.538749999999879 ], [ 42.441250000000139, -0.541806 ], [ 42.441250000000139, -0.540138 ] ] ], [ [ [ 42.426807, -0.533471 ], [ 42.425972000000115, -0.538194 ], [ 42.421806000000174, -0.54041599999988 ], [ 42.426807, -0.533471 ] ] ], [ [ [ 42.429306, -0.529027 ], [ 42.431252000000143, -0.522361 ], [ 42.438194, -0.516806 ], [ 42.429306, -0.529027 ] ] ], [ [ [ 42.477917000000161, -0.477361 ], [ 42.477917000000161, -0.479584 ], [ 42.476807000000122, -0.479584 ], [ 42.477917000000161, -0.477361 ] ] ], [ [ [ 42.506805, -0.435972 ], [ 42.510139, -0.440695 ], [ 42.506527000000176, -0.43986 ], [ 42.506805, -0.435972 ] ] ] ] } },
{ "type": "Feature", "properties": { "GID_1": "SOM.11_1", "GID_0": "SOM", "COUNTRY": "Somalia", "NAME_1": "Mudug", "VARNAME_1": "Madugh| Mudugh", "NL_NAME_1": "NA", "TYPE_1": "Gobolka", "ENGTYPE_1": "Region", "CC_1": "NA", "HASC_1": "SO.MU", "ISO_1": "SO-MU" }, "geometry": { "type": "Polygon", "coordinates": [ [ [ 48.281250001000103, 5.017639161000034 ], [ 47.985416413000053, 4.509861947000047 ], [ 47.835140229000103, 4.343194962000098 ], [ 47.5, 4.489998818000174 ], [ 47.610000609999986, 5.190001010000117 ], [ 47.470001221000132, 5.569999219000067 ], [ 47.349998474000074, 5.750000954000086 ], [ 47.599998473000142, 6.280000209000093 ], [ 46.53020477300015, 6.519646644000034 ], [ 47.528480529000092, 7.562494277999974 ], [ 48.499999999000124, 7.409999847999984 ], [ 49.029998778999982, 7.710000038000032 ], [ 49.189998627000136, 7.699999809000133 ], [ 49.43999862700008, 7.580000878000078 ], [ 49.500000001000103, 7.570000172 ], [ 49.646251679000102, 7.402637958000184 ], [ 49.472084045000088, 7.168472767000083 ], [ 49.214584351000099, 6.748472214 ], [ 49.09069442800012, 6.434307100000012 ], [ 49.060695648000149, 6.22958278700014 ], [ 48.912361144999977, 5.920971870000074 ], [ 48.629859924000186, 5.474027157000137 ], [ 48.281250001000103, 5.017639161000034 ] ] ] } },
{ "type": "Feature", "properties": { "GID_1": "SOM.12_1", "GID_0": "SOM", "COUNTRY": "Somalia", "NAME_1": "Nugaal", "VARNAME_1": "NA", "NL_NAME_1": "NA", "TYPE_1": "Gobolka", "ENGTYPE_1": "Region", "CC_1": "NA", "HASC_1": "SO.NU", "ISO_1": "SO-NU" }, "geometry": { "type": "Polygon", "coordinates": [ [ [ 47.528480529000092, 7.562494277999974 ], [ 47.958229065000126, 8.01258373200011 ], [ 47.936557769000103, 8.011961938000184 ], [ 48.119998932000101, 8.189999580000119 ], [ 48.020000457000037, 8.210001944999988 ], [ 48.549999237000122, 8.760001183000099 ], [ 48.68999862700008, 8.750001907000183 ], [ 49.080001830000072, 9.140001297000083 ], [ 49.110000611000146, 8.899998665000055 ], [ 49.180000306000068, 8.770001411000067 ], [ 49.450000763000105, 8.590000154000109 ], [ 49.680000305000021, 8.580000878000021 ], [ 49.779998779000039, 8.529998780000142 ], [ 49.840000153000176, 8.330000878000078 ], [ 49.930000305000192, 8.460000038000089 ], [ 50.049999236000076, 8.439997673 ], [ 50.178169250000053, 8.32992839700006 ], [ 50.146526337000182, 8.278750419 ], [ 50.126525879000155, 8.192360878000102 ], [ 49.970695495000029, 8.082082748000062 ], [ 49.818195344, 7.920138837000081 ], [ 49.804584503000171, 7.826250076000179 ], [ 49.817081452000082, 7.797361851000119 ], [ 49.835140228000171, 7.794583799000122 ], [ 49.824028015000067, 7.73847103200012 ], [ 49.76930618300014, 7.667637825000156 ], [ 49.742637633000129, 7.57902813000004 ], [ 49.646526337000068, 7.402916908000179 ], [ 49.500000001000103, 7.570000172 ], [ 49.43999862700008, 7.580000878000078 ], [ 49.189998627000136, 7.699999809000133 ], [ 49.029998778999982, 7.710000038000032 ], [ 48.499999999000124, 7.409999847999984 ], [ 47.528480529000092, 7.562494277999974 ] ] ] } },
{ "type": "Feature", "properties": { "GID_1": "SOM.13_1", "GID_0": "SOM", "COUNTRY": "Somalia", "NAME_1": "Sanaag", "VARNAME_1": "Sanag", "NL_NAME_1": "NA", "TYPE_1": "Gobolka", "ENGTYPE_1": "Region", "CC_1": "NA", "HASC_1": "SO.SA", "ISO_1": "NA" }, "geometry": { "type": "MultiPolygon", "coordinates": [ [ [ [ 46.840000153000062, 9.420001985000056 ], [ 46.009998322000172, 10.080000876999975 ], [ 46.036178589000144, 10.770973205000132 ], [ 46.117916107000042, 10.764860154000189 ], [ 46.234306335000042, 10.783193588000074 ], [ 46.342918395000027, 10.69208335899998 ], [ 46.42069625900001, 10.680137634000062 ], [ 46.626804352000192, 10.731528282000056 ], [ 46.812408000000175, 10.824314000000129 ], [ 46.930973000000165, 10.91625 ], [ 46.990417, 10.929307 ], [ 47.011250000000132, 10.962361 ], [ 47.099304, 10.987639 ], [ 47.149029, 11.064029000000176 ], [ 47.411251, 11.177917 ], [ 47.538471, 11.181806000000165 ], [ 47.629581, 11.115139 ], [ 47.698471, 11.089861 ], [ 47.795696, 11.122917 ], [ 47.870693208000034, 11.113194466000095 ], [ 47.917083739000134, 11.127362251000022 ], [ 47.960971833000031, 11.114859582 ], [ 48.139305115000127, 11.125693322000075 ], [ 48.238750457000151, 11.205693246000067 ], [ 48.305416106000052, 11.222639084999969 ], [ 48.35458374000018, 11.270137788000113 ], [ 48.475692750000178, 11.285139084000036 ], [ 48.525970459000064, 11.310417176000044 ], [ 48.597362519000114, 11.308472634000111 ], [ 48.658195494999973, 11.32569408400019 ], [ 48.91477203300019, 11.239595414000064 ], [ 49.029998778999982, 10.780000686000051 ], [ 49.060001373000148, 9.570000649000121 ], [ 46.840000153000062, 9.420001985000056 ] ] ], [ [ [ 46.928749000000153, 10.919028 ], [ 46.927361, 10.916805999000132 ], [ 46.926529001000063, 10.917916 ], [ 46.928749000000153, 10.919028 ] ] ], [ [ [ 47.249306, 11.229305 ], [ 47.240971000000172, 11.219584 ], [ 47.234028000000137, 11.216528000000153 ], [ 47.239582000000155, 11.223751 ], [ 47.249306, 11.229305 ] ] ] ] } },
{ "type": "Feature", "properties": { "GID_1": "SOM.14_1", "GID_0": "SOM", "COUNTRY": "Somalia", "NAME_1": "Shabeellaha Dhexe", "VARNAME_1": "Sh. Dhexe| Central Shabele", "NL_NAME_1": "NA", "TYPE_1": "Gobolka", "ENGTYPE_1": "Region", "CC_1": "NA", "HASC_1": "SO.SD", "ISO_1": "NA" }, "geometry": { "type": "Polygon", "coordinates": [ [ [ 45.389999389000195, 2.150001050000128 ], [ 45.330002, 2.180001 ], [ 45.339999998999986, 2.719998947000136 ], [ 45.119998932000158, 3.040000915000064 ], [ 45.06999969400016, 3.250000953000097 ], [ 45.150001526000153, 3.210000039000136 ], [ 45.27000045800014, 3.200001002000135 ], [ 45.93999862700008, 3.250000953000097 ], [ 46.029998779000096, 3.520000935000041 ], [ 46.389999389000195, 3.890000105000126 ], [ 47.035694123000042, 3.471806049000122 ], [ 46.674861907000036, 3.070693971000139 ], [ 46.345138549000069, 2.787360907000163 ], [ 46.297637940000129, 2.712084054000115 ], [ 46.222362518000068, 2.659584046000134 ], [ 46.106529235000039, 2.517638923000163 ], [ 46.005416869999976, 2.424585105000119 ], [ 45.604026794000106, 2.183193923000147 ], [ 45.389999389000195, 2.150001050000128 ] ] ] } },
{ "type": "Feature", "properties": { "GID_1": "SOM.15_1", "GID_0": "SOM", "COUNTRY": "Somalia", "NAME_1": "Shabeellaha Hoose", "VARNAME_1": "Sh. Hoose| Lower Shabele", "NL_NAME_1": "NA", "TYPE_1": "Gobolka", "ENGTYPE_1": "Region", "CC_1": "NA", "HASC_1": "SO.SH", "ISO_1": "SO-SH" }, "geometry": { "type": "MultiPolygon", "coordinates": [ [ [ [ 43.518470763000096, 0.675719024000045 ], [ 42.979999543000133, 1.460000038000032 ], [ 43.580001831000175, 1.75999999000004 ], [ 44.65000152600004, 2.220000028000015 ], [ 44.619998932000101, 2.479999066000062 ], [ 44.659999847000165, 2.75000000100016 ], [ 44.639999390000071, 2.80999994300015 ], [ 44.689998628000069, 3.049999953000167 ], [ 44.659999847000165, 3.250000953000097 ], [ 44.779998780000028, 3.26999998000008 ], [ 45.06999969400016, 3.250000953000097 ], [ 45.119998932000158, 3.040000915000064 ], [ 45.339999998999986, 2.719998947000136 ], [ 45.330002, 2.180001 ], [ 45.389999389000195, 2.150001050000128 ], [ 45.266251, 1.988194 ], [ 45.132637000000102, 1.933472 ], [ 45.045970916000101, 1.88541603200008 ], [ 44.761528015000067, 1.710417032 ], [ 44.622360229000151, 1.601248979000104 ], [ 44.5993042, 1.598749042000122 ], [ 44.237083, 1.301249 ], [ 44.141251000000182, 1.212916000000121 ], [ 44.130138000000102, 1.183472 ], [ 44.047085, 1.133194 ], [ 44.02208300000018, 1.087361000000158 ], [ 43.979305000000124, 1.069306 ], [ 43.938194000000124, 1.020694 ], [ 43.778473000000133, 0.910694 ], [ 43.518470763000096, 0.675719024000045 ] ] ], [ [ [ 44.037917999000058, 1.107082000000105 ], [ 44.03875, 1.103749999 ], [ 44.035137, 1.101528 ], [ 44.037917999000058, 1.107082000000105 ] ] ], [ [ [ 45.089306, 1.905971999000087 ], [ 45.090136999000038, 1.907916000000114 ], [ 45.09097300000019, 1.907916000000114 ], [ 45.089306, 1.905971999000087 ] ] ] ] } },
{ "type": "Feature", "properties": { "GID_1": "SOM.16_1", "GID_0": "SOM", "COUNTRY": "Somalia", "NAME_1": "Sool", "VARNAME_1": "NA", "NL_NAME_1": "NA", "TYPE_1": "Gobolka", "ENGTYPE_1": "Region", "CC_1": "NA", "HASC_1": "SO.SO", "ISO_1": "SO-SO" }, "geometry": { "type": "Polygon", "coordinates": [ [ [ 47.936557769000103, 8.011961938000184 ], [ 47.008838654000101, 7.98536062300019 ], [ 47.099998474000131, 8.560000421000154 ], [ 47.000000000000114, 8.750001907000183 ], [ 46.150001525, 8.799999237000179 ], [ 46.189998627000023, 8.990001678000056 ], [ 46.009998322000172, 10.080000876999975 ], [ 46.840000153000062, 9.420001985000056 ], [ 49.060001373000148, 9.570000649000121 ], [ 49.080001830000072, 9.140001297000083 ], [ 48.68999862700008, 8.750001907000183 ], [ 48.549999237000122, 8.760001183000099 ], [ 48.020000457000037, 8.210001944999988 ], [ 48.119998932000101, 8.189999580000119 ], [ 47.936557769000103, 8.011961938000184 ] ] ] } },
{ "type": "Feature", "properties": { "GID_1": "SOM.17_1", "GID_0": "SOM", "COUNTRY": "Somalia", "NAME_1": "Togdheer", "VARNAME_1": "Tog-Dheer| Togdheer| Togder", "NL_NAME_1": "NA", "TYPE_1": "Gobolka", "ENGTYPE_1": "Region", "CC_1": "NA", "HASC_1": "SO.TO", "ISO_1": "SO-TO" }, "geometry": { "type": "Polygon", "coordinates": [ [ [ 47.008838654000101, 7.98536062300019 ], [ 44.689537049000137, 8.75772476100019 ], [ 44.689998628000069, 9.310002328000053 ], [ 44.830001831000118, 9.859999658000163 ], [ 45.099998475000064, 10.170001029000161 ], [ 46.009998322000172, 10.080000876999975 ], [ 46.189998627000023, 8.990001678000056 ], [ 46.150001525, 8.799999237000179 ], [ 47.000000000000114, 8.750001907000183 ], [ 47.099998474000131, 8.560000421000154 ], [ 47.008838654000101, 7.98536062300019 ] ] ] } },
{ "type": "Feature", "properties": { "GID_1": "SOM.18_1", "GID_0": "SOM", "COUNTRY": "Somalia", "NAME_1": "Woqooyi Galbeed", "VARNAME_1": "North-West| W.Galbeed| Woqooyi G", "NL_NAME_1": "NA", "TYPE_1": "Gobolka", "ENGTYPE_1": "Region", "CC_1": "NA", "HASC_1": "SO.WO", "ISO_1": "SO-WO" }, "geometry": { "type": "Polygon", "coordinates": [ [ [ 43.97551345800008, 9.036986351999985 ], [ 43.761054993000187, 9.231266976000086 ], [ 43.68224334700011, 9.279087067000148 ], [ 43.624473573000046, 9.346096992000128 ], [ 43.546253205000028, 9.400907517000064 ], [ 43.49683380200014, 9.408078194000154 ], [ 43.482482910000101, 9.435317993000012 ], [ 43.415462494000053, 9.476858139000171 ], [ 43.405426026000043, 9.510837556000126 ], [ 43.30158615, 9.651344300000176 ], [ 43.759998321000182, 10.279998779000096 ], [ 44.040000915000064, 10.149999619000084 ], [ 44.139999390000185, 10.289999962000081 ], [ 44.23513793900014, 10.472639083000104 ], [ 44.317081450999979, 10.417084695000028 ], [ 44.413749695000149, 10.389861107000172 ], [ 44.448749543000019, 10.400695801999973 ], [ 44.591526031000114, 10.378749848000155 ], [ 44.748195647000045, 10.418194772000163 ], [ 44.945972443000187, 10.408472061000111 ], [ 45.003471374000185, 10.434583665 ], [ 45.003192901000148, 10.452361108 ], [ 44.982082367000146, 10.440972329000147 ], [ 44.979583740000066, 10.444305420000148 ], [ 45.053749085, 10.476529121000112 ], [ 45.085971833000031, 10.507638931000031 ], [ 45.229305267000143, 10.556804657000157 ], [ 45.324028015000067, 10.662361146000023 ], [ 45.46569442700013, 10.665695190000065 ], [ 45.57402801500001, 10.722360612000045 ], [ 45.594028473000037, 10.76208210100009 ], [ 45.672084808000022, 10.782917977000125 ], [ 45.753471374000185, 10.829583169000102 ], [ 45.776527404000035, 10.860415458999967 ], [ 45.805137635000165, 10.868749619000141 ], [ 45.859584809000125, 10.816528320000032 ], [ 45.878192901000034, 10.814862252000069 ], [ 45.862640382000109, 10.823472977999984 ], [ 45.873470307000105, 10.834584236000069 ], [ 45.974582672000167, 10.778749467000182 ], [ 46.036178589000144, 10.770973205000132 ], [ 46.009998322000172, 10.080000876999975 ], [ 45.099998475000064, 10.170001029000161 ], [ 44.830001831000118, 9.859999658000163 ], [ 44.689998628000069, 9.310002328000053 ], [ 44.689537049000137, 8.75772476100019 ], [ 44.156364442000097, 8.937956809000127 ], [ 43.97551345800008, 9.036986351999985 ] ] ] } }
]
}
